Endereço;Complemento;Cidade;Estado;CódigoPostal;Name;Telefone;Bairro;Região OP;URL;Tipo;Categoria;Latitude;Longitude;Endereço Formatado
Av Brasil, 1523;;Porto Alegre;RS;90230-060;Escola de Musical Brasília;(51)3337-2885;Sao Joao;NOROESTE;;ESPAÇO DE FORMAÇÃO CULTURAL;música;-30,007915309267;-51,192407281026;Av Brasil, 1523 Porto Alegre, RS 90230-060
Av Venâncio Aires, 67;;Porto Alegre;RS;90040-192;Casa da Venâncio Secretaria de Cultura (Emac);(51)3289-8091;Cidade Baixa;CENTRO;;ESPAÇO CULTURAL;PATRIMONIO;-30,042793687417;-51,219097635559;Av Venâncio Aires, 67 Porto Alegre, RS 90040-192
Av. Alberto Bins, 665;;Porto Alegre;RS;90030-140;Teatro do SESC;(51)3284-2070;Centro Historico;CENTRO;http://www.sesc-rs.com.br/home/teatro/teatrosunidades.htm;ESPAÇO CULTURAL;;-30,027855018371;-51,219650503982;Av. Alberto Bins, 665 Porto Alegre, RS 90030-140
Av. Assis Brasil, 164; 2º andar;Porto Alegre;RS;91010-000;Arcoíris Bourbon Assis Brasil;(51)3362-3608;Sao Joao;NOROESTE;http://www.arcoiriscinemas.com.br/;ESPAÇO DE FORMAÇÃO CULTURAL;;-30,007984847819;-51,184220336813;Avenida Assis Brasil, 164 - São João, Porto Alegre - RS, 91010-000, República Federativa do Brasil
Av. Assis Brasil, 3522; 3º Andar;Porto Alegre;RS;91010-007;GNC Cinemas Shopping Lindóia;(51)3299-0505;Jardim Lindoia;NOROESTE;http://www.gnccinemas.com.br;ESPAÇO DE FORMAÇÃO CULTURAL;;-30,01032731707;-51,151504056467;Avenida Assis Brasil, 3522 - Jardim Lindóia, Porto Alegre - RS, 91010-007, República Federativa do Brasil
Av. Assis Brasil, 4320;;Porto Alegre;RS;91110-001;Arcoíris BoulevardStrip Center ;(51)3344-1483;Sarandi;NORTE;http://www.arcoiriscinemas.com.br/;ESPAÇO DE FORMAÇÃO CULTURAL;;-30,009010374453;-51,143604141192;Av. Assis Brasil, 4320 Porto Alegre, RS 91110-001
Av. Assis Brasil, 8450;;Porto Alegre;RS;91140-001;Auditório da Fatec Senai RS;(51)3347-8400;;;http://www.senairs.org.br/faculdade/;ESPAÇO CULTURAL;;-29,975088849985;-51,114871901547;Av. Assis Brasil, 8450 Porto Alegre, RS 91140-001
Av. Assis Brasil, 8450;;Porto Alegre;RS;91140-001;FATEC Senai RS;(51)3347-8400;;;http://www.senairs.org.br/faculdade/;ESPAÇO DE FORMAÇÃO CULTURAL;livro, leitura;-29,975091779671;-51,114870090422;Av. Assis Brasil, 8450 Porto Alegre, RS 91140-001
Av. Assis Brasil, 8787;;Porto Alegre;RS;91140-000;Teatro do SESI;(51)3347-8706;Sarandi;NORTE;www.centrodeeventosfiergs.com.br;ESPAÇO CULTURAL;;-29,978648042229;-51,114369445367;Av. Assis Brasil, 8787 Porto Alegre, RS 91140-000
Av. Assis Brasil, 8787;;Porto Alegre;RS;91140-001;Feiarte;(41)3075-1100;;;http://www.feiarters.com.br/;ESPAÇO DE FORMAÇÃO CULTURAL;artesanado, artes visuais, dança, artes gráficas, música;-30,030304235119;-51,231110567494;Av. Assis Brasil, 8787 Porto Alegre, RS 91140-001
Av. Augusto Meyer, 146;;Porto Alegre;RS;90550-110;Teatro do Sinduscon RS;(51)3021-3448;Higienopolis;NOROESTE;http://www.teatrosindusconrs.com.br/;ESPAÇO CULTURAL;;-30,021540236589;-51,184626018724;Av. Augusto Meyer, 146 Porto Alegre, RS 90550-110
Av. Baltazar de Oliveira Garcia, 2132;;Porto Alegre;RS;91130-000;Biblioteca Pública Estadual do Centro Humanístico Vida ;(51)3344-3960;Sarandi;NORTE;http://www.fgtas.rs.gov.br/portal/index.php?menu=programa_viz&cod_noticia=599;ESPAÇO DE FORMAÇÃO CULTURAL;livro, leitura, cultura digital;-30,011487116614;-51,127650478197;Av. Baltazar de Oliveira Garcia, 2132 Porto Alegre, RS 91130-000
Av. Benjamin Constant, 1773;;Porto Alegre;RS;90550-002;Cine Teatro Presidente;;Sao Geraldo;HUMAITA/NAVEGANTES;;ESPAÇO CULTURAL;;-30,016555960567;-51,197057963561;Av. Benjamin Constant, 1773 Porto Alegre, RS 90550-002
Av. Bento Gonçalves, 1129;;Porto Alegre;RS;90650-000;Arquivo Histórico de Porto Alegre Moysés Vellinho;(51)3219-7900;Santo Antonio;PARTENON;http://www2.portoalegre.rs.gov.br/smc/default.php?reg=10&p_secao=19;ESPAÇO CULTURAL;PATRIMONIO;-30,053958227243;-51,200833488231;Av. Bento Gonçalves, 1129 Porto Alegre, RS 90650-000
Av. Bento Gonçalves, 2460;;Porto Alegre;RS;90650-003;Memorial da Loucura Hospital São Pedro;(51)3336-5162;Partenon;PARTENON;;ESPAÇO CULTURAL;;-30,060845951107;-51,190289441498;Av. Bento Gonçalves, 2460 Porto Alegre, RS 90650-003
Av. Bento Gonçalves, 7712; Prédio 41301;Porto Alegre;RS;90540-000;Biblioteca UFRGS Agronomia;(51)3308-7456;Agronomia;LOMBA DO PINHEIRO;http://www6.ufrgs.br/agronomia/novo/index.php?p=biblioteca/inicio.php;ESPAÇO DE FORMAÇÃO CULTURAL;livro, leitura;-30,078847896883;-51,116474079334;Avenida Bento Gonçalves, 7712 - Agronomia, Porto Alegre - RS, 90540-000, República Federativa do Brasil
Av. Bento Gonçalves, 9090; Prédio 42602;Porto Alegre;RS;90035-007;Biblioteca UFRGS Veterinaria;(51)3308-6118;Santana;CENTRO;http://www.ufrgs.br/bibvet/;ESPAÇO DE FORMAÇÃO CULTURAL;livro, leitura;-30,077011718494;-51,128873133473;Avenida Bento Gonçalves, 9090 - Agronomia, Porto Alegre - RS, 90540-000, República Federativa do Brasil
Av. Bento Gonçalves, 9500;;Porto Alegre;RS;90540-000;Museu de Paleontologia do RS Instituto de Geociências da UFRGS ;(51)3316-6578;Agronomia;LOMBA DO PINHEIRO;http://www.ufrgs.br/geociencias/;ESPAÇO CULTURAL;;-30,076997799635;-51,128869676133;Av. Bento Gonçalves, 9500 Porto Alegre, RS 90540-000
Av. Bento Gonçalves, 9500;;Porto Alegre;RS;90540-000;Museu de Topografia professor Laureano Ibrahim Chaffe UFRGS;;Agronomia;LOMBA DO PINHEIRO;www.ufrgs.br/museudetopografia;ESPAÇO CULTURAL;;-30,077001898286;-51,128869946203;Av. Bento Gonçalves, 9500 Porto Alegre, RS 90540-000
Av. Bento Gonçalves, 9500; Prédio 43423;Porto Alegre;RS;91501-970;Biblioteca UFRGS Biociências;(51)3308-7645;Agronomia;LOMBA DO PINHEIRO;http://www.ufrgs.br/bibbio/;ESPAÇO DE FORMAÇÃO CULTURAL;livro, leitura;-30,077007838566;-51,128874333074;Avenida Bento Gonçalves, 9500 - Agronomia, Porto Alegre - RS, 90540-000, República Federativa do Brasil
Av. Bento Gonçalves, 9500;setor 6;Porto Alegre;RS;91501-970;Biblioteca UFRGS CENTRO DE TECNOLOGIA DA ESCOLA DE ENGENHARIA (CTENG);(51)3308-6534;Agronomia;LOMBA DO PINHEIRO;http://www.ct.ufrgs.br/;ESPAÇO DE FORMAÇÃO CULTURAL;livro, leitura;-30,077010010082;-51,128880271592;Av. Bento Gonçalves, 9500 Porto Alegre, RS 91501-970
Av. Bento Gonçalves, 9500; Prédio 43122 ;Porto Alegre;RS;90035-007;Biblioteca UFRGS Quimica;(51)3308-6280;Santana;CENTRO;http://www.iq.ufrgs.br/biblioteca/;ESPAÇO DE FORMAÇÃO CULTURAL;livro, leitura;-30,077015218663;-51,128868435794;Avenida Bento Gonçalves, 9500 - Agronomia, Porto Alegre - RS, 90540-000, República Federativa do Brasil
Av. Bento Gonçalves, 9500; Prédio 43321;Porto Alegre;RS;91501-970;Biblioteca UFRGS CIÊNCIAS SOCIAIS E HUMANIDADES (CSH);(51)3308-7284;Sao Jose;PARTENON;http://www6.ufrgs.br/ifch/index.php?option=com_content&view=article&id=114&Itemid=171;ESPAÇO DE FORMAÇÃO CULTURAL;livro, leitura;-30,07701425862;-51,128875576884;Av. Bento Gonçalves, 9500 Porto Alegre, RS 91501-970
Av. Bento Gonçalves, 9500; Prédio 43113 ;Porto Alegre;RS;91501-970;Biblioteca UFRGS Geociências;(51)3308-6402;Sao Jose;PARTENON;http://www6.ufrgs.br/geociencias/bibgeo/bib/index.php;ESPAÇO DE FORMAÇÃO CULTURAL;livro, leitura;-30,077008493437;-51,128876642781;Av. Bento Gonçalves, 9500 Porto Alegre, RS 91501-970
Av. Bento Gonçalves, 9500; Prédio 43124;Porto Alegre;RS;91501-970;Biblioteca UFRGS Matemática;(51)3308-6228;Sao Jose;PARTENON;http://paginas.ufrgs.br/mat/biblioteca;ESPAÇO DE FORMAÇÃO CULTURAL;livro, leitura;-30,077013452935;-51,128873730445;Av. Bento Gonçalves, 9500 Porto Alegre, RS 91501-970
Av. Bento Gonçalves, 9500; Prédio 43135 ;Porto Alegre;RS;91501-970;Biblioteca UFRGS Física;(51)3308-6425;Sao Jose;PARTENON;http://www.if.ufrgs.br/;ESPAÇO DE FORMAÇÃO CULTURAL;livro, leitura;-30,077008430976;-51,128873526838;Av. Bento Gonçalves, 9500 Porto Alegre, RS 91501-970
Av. Bento Gonçalves, 9500; Prédio 43212;Porto Alegre;RS;91501-970;Biblioteca UFRGS CIÊNCIA E TECNOLOGIA DE ALIMENTOS (ICTA) ;(51)3308-6675;Agronomia;LOMBA DO PINHEIRO;http://paginas.ufrgs.br/icta/biblioteca-setorial e  http://www.ufrgs.br/bibicta/Apresentacao/Apresentacao.htm;ESPAÇO DE FORMAÇÃO CULTURAL;;-30,077011475069;-51,128870631577;Av. Bento Gonçalves, 9500 Porto Alegre, RS 91501-970
Av. Bento Gonçalves, 9500; Prédio 43321;Porto Alegre;RS;91501-970;Biblioteca UFRGS CENTRO BRASILEIRO DE DOCUMENTAÇÃO E ESTUDOS DA BACIA DO PRATA  (CEDEP);;Agronomia;LOMBA DO PINHEIRO;http://www.cedep.ifch.ufrgs.br/;ESPAÇO DE FORMAÇÃO CULTURAL;livro, leitura, arquivo;-30,077008694934;-51,128875618374;Av. Bento Gonçalves, 9500 Porto Alegre, RS 91501-970
Av. Bento Gonçalves, 9500; Prédio 43412;Porto Alegre;RS;91501-970;Biblioteca UFRGS Informática;(51)3308-6163;Sao Jose;PARTENON;http://www.inf.ufrgs.br/biblio/;ESPAÇO DE FORMAÇÃO CULTURAL;livro, leitura;-30,077013684043;-51,128877793931;Av. Bento Gonçalves, 9500 Porto Alegre, RS 91501-970
Av. Bento Gonçalves, 9500; Prédio 43433;Porto Alegre;RS;91501-970;Biblioteca UFRGS Botânica;(51)3308-7681;Agronomia;LOMBA DO PINHEIRO;;ESPAÇO DE FORMAÇÃO CULTURAL;livro, leitura;-30,07700789347;-51,128875854333;Av. Bento Gonçalves, 9500 Porto Alegre, RS 91501-970
Av. Bento Gonçalves, 9500; Prédio 43815;Porto Alegre;RS;91501-970;Biblioteca do Colégio Aplicação;(51)3308-6998;Sao Jose;PARTENON;http://www.cap.ufrgs.br/interno.php;ESPAÇO DE FORMAÇÃO CULTURAL;livro, leitura;-30,077008524773;-51,128871566768;Av. Bento Gonçalves, 9500 Porto Alegre, RS 91501-970
Av. Bento Gonçalves, 9500; Prédio 44302;Porto Alegre;RS;91501-970;Biblioteca UFRGSPesquisas Hidráulicas;(51)3308-6410;Sao Jose;PARTENON;http://www.iph.ufrgs.br/biblioteca/;ESPAÇO DE FORMAÇÃO CULTURAL;livro, leitura;-30,077007599736;-51,128877924814;Av. Bento Gonçalves, 9500 Porto Alegre, RS 91501-970
Av. Bento Gonçalves, 9600;;Porto Alegre;RS;90540-000;Museu Universitário de Arqueologia e Etnografia MUAE-UFRGS;(51)3316-7169;Agronomia;LOMBA DO PINHEIRO;;ESPAÇO CULTURAL;;-30,076999908775;-51,128862043373;Av. Bento Gonçalves, 9600 Porto Alegre, RS 90540-000
Av. Borges de Medeiros, 1501;;Porto Alegre;RS;90020-024;Museu do Folclore / Instituto Gaúcho de Tradição e Folclore;(51)3228-1711;Centro Historico;CENTRO;http://www.igtf.rs.gov.br/;ESPAÇO CULTURAL;;-30,037097192512;-51,228210579666;Av. Borges de Medeiros, 1501 Porto Alegre, RS 90020-024
Av. Borges de Medeiros, 1501; Térreo;Porto Alegre;RS;90020-024;Instituto Gaúcho de Tradição e Folclore;(51)3228-1764;Centro Historico;CENTRO;http://www.igtf.rs.gov.br/;ESPAÇO DE FORMAÇÃO CULTURAL;arquivo, tradicionalismo;-30,037096974408;-51,228211317827;Av. Borges de Medeiros, 1501 Porto Alegre, RS 90020-024
Av. Borges de Medeiros, 1945;;Porto Alegre;RS;90110-150;Teatro do IPE;(51)3221-8799;Praia de Belas;CENTRO;www.ipe.rs.gov.br;ESPAÇO CULTURAL;;-30,043092182694;-51,22888199371;Av. Borges de Medeiros, 1945 Porto Alegre, RS 90110-150
Av. Borges de Medeiros, 1945; 3º andar;Porto Alegre;RS;90110-150;Museu Previdenciário Flores da Cunha;(51)3210-5851;Praia de Belas;CENTRO;;ESPAÇO CULTURAL;;-30,043093793959;-51,228876782571;Av. Borges de Medeiros, 1945 Porto Alegre, RS 90110-150
Av. Borges de Medeiros, 659; 14º andar;Porto Alegre;RS;90020-022;AGERGS Agencia Estadual de Regulação dos Serviços Públicos Delegados do Rio Grande do Sul;5 32888827;Centro Historico;CENTRO;http://www.agergs.rs.gov.br;ESPAÇO DE FORMAÇÃO CULTURAL;arquivo;-30,031536645431;-51,227811635872;Avenida Borges de Medeiros, 659 - Centro, Porto Alegre - RS, 90020-022, República Federativa do Brasil
Av. Borges de Medeiros, 835;;Porto Alegre;RS;90020-024;Teatro de Arena;(51)3226-0242;Centro Historico;CENTRO;http://www.teatrodearena.com/;ESPAÇO CULTURAL;;-30,032367680973;-51,227852561444;Av. Borges de Medeiros, 835 Porto Alegre, RS 90020-024
Av. Borges de Medeiros, 835;;Porto Alegre;RS;90020-024;Espaço Sônia Duro  Teatro de Arena;(51)3226-0242;Centro Historico;CENTRO;http://www.teatrodearena.com/;ESPAÇO DE FORMAÇÃO CULTURAL;arquivo;-30,032364702453;-51,227851334651;Av. Borges de Medeiros, 835 Porto Alegre, RS 90020-024
Av. Brasil, 483;;Porto Alegre;RS;90230-060;Biblioteca Pública do Sesc;(51)3342-5099;Navegantes;HUMAITA/NAVEGANTES;http://www.sesc-rs.com.br/educacao/biblioteca/index.htm;ESPAÇO DE FORMAÇÃO CULTURAL;livro, leitura;-30,004736270898;-51,202521585395;Av. Brasil, 483 Porto Alegre, RS 90230-060
Av. Carlos Gomes, 1610;;Porto Alegre;RS;90480-002;Gloria Corbetta Com de Objeto de Arte;(51)3328-7586;Tres Figueiras;LESTE;www.gloriacorbetta.com.br;ESPAÇO CULTURAL;;-30,034820615188;-51,177314732664;Av. Carlos Gomes, 1610 Porto Alegre, RS 90480-002
Av. Carlos Gomes, 2120;;Porto Alegre;RS;90480-002;Jornalista Roberto Eduardo Xavier SMAM;(51)3289-7519;Tres Figueiras;LESTE;http://www2.portoalegre.rs.gov.br/smam/default.php?p_secao=206;ESPAÇO DE FORMAÇÃO CULTURAL;livro, leitura, audio visual, arquivo;-30,03738117908;-51,173946078585;Avenida Carlos Gomes, 2120 - Três Figueiras, Porto Alegre - RS, República Federativa do Brasil
Av. Cel. Lucas de Oliveira, 894;;Porto Alegre;RS;90440-011;Escola de Música Tio Zequinha;(51)3332-9531;Boa Vista;NOROESTE;;ESPAÇO DE FORMAÇÃO CULTURAL;música;-30,030238726816;-51,19446879177;Av. Cel. Lucas de Oliveira, 894 Porto Alegre, RS 90440-011
Av. Coronel Lucas de Oliveira, 21;;Porto Alegre;RS;90440-010;Gestual;(51)3330-9673;Auxiliadora;CENTRO;http://www.gestual.com.br/;ESPAÇO CULTURAL;artes visuais, fotografia;-30,022555844194;-51,195370261522;Av. Coronel Lucas de Oliveira, 21 Porto Alegre, RS 90440-010
Av. Coronel Lucas de Oliveira, 432;;Porto Alegre;RS;90440-011;Galeria Nieto;(51)3330-8407;Mont Serrat;CENTRO;http://www.nieto.art.br/;ESPAÇO CULTURAL;;-30,0261999319;-51,194887657238;Av. Coronel Lucas de Oliveira, 432 Porto Alegre, RS 90440-011
Av. Coronel Lucas de Oliveira, 995; 2º Andar;Porto Alegre;RS;90440-010;Davera Arte & Cultura;(51)3222-0816;Bela Vista;CENTRO;http://www.davera.com.br/;ESPAÇO CULTURAL;;-30,031150234336;-51,194487614315;Avenida Coronel Lucas de Oliveira, 995 - Bela Vista, Porto Alegre - RS, 90440-010, República Federativa do Brasil
Av. Cristóvão Colombo, 400;;Porto Alegre;RS;90560-003;Teatro Escola de Porto Alegre-Tepa;(51)3221-7778;Floresta;CENTRO;http://www.tepa.com.br/;ESPAÇO CULTURAL;;-30,026180030809;-51,213621882369;Av. Cristóvão Colombo, 400 Porto Alegre, RS 90560-003
Av. Cristovão Colombo, 545;;Porto Alegre;RS;90560-000;CineSystem Shopping Total;(51)3299-0339;Floresta;CENTRO;http://www.cinesystem.com.br;ESPAÇO DE FORMAÇÃO CULTURAL;;-30,02535776563;-51,212319524576;Av. Cristovão Colombo, 545 Porto Alegre, RS 90560-000
Av. Cristóvão Colombo, 545;;Porto Alegre;RS;90560-000;Museu do Esporte;(51)3018-7765;Floresta;CENTRO;www.museudoesporte.esp.br;ESPAÇO CULTURAL;;-30,025359022068;-51,212319288148;Av. Cristóvão Colombo, 545 Porto Alegre, RS 90560-000
Av. Cristóvão Colombo, 772;;Porto Alegre;RS;90560-003;Cine Theatro Ypiranga;(51)3286-2408;Floresta;CENTRO;http://www.cinetheatro.com.br/;ESPAÇO CULTURAL;;-30,024019135235;-51,210592624474;Av. Cristóvão Colombo, 772 Porto Alegre, RS 90560-003
Av. Desembargador André da Rocha, 50;;Porto Alegre;RS;90050-161;Escola de Música da OSPA;(51)3228-6737;Centro Historico;CENTRO;;ESPAÇO DE FORMAÇÃO CULTURAL;;-30,03286651874;-51,223532960318;Av. Desembargador André da Rocha, 50 Porto Alegre, RS 90050-161
Av. Diário de Notícias, 300;;Porto Alegre;RS;90810-080;Cinemark Barra Shopping Sul;(51)4003-4171;Cristal;CRISTAL;http://www.cinemark.com.br;ESPAÇO DE FORMAÇÃO CULTURAL;;-30,08364951026;-51,246968900493;Av. Diário de Notícias, 300 Porto Alegre, RS 90810-080
Av. Dolores Alcaraz Caldas, 90;;Porto Alegre;RS;90110-180;Memória Ipiranga;(51)3216-4184;Praia de Belas;CENTRO;;ESPAÇO CULTURAL;;-30,045699055288;-51,230042657788;Av. Dolores Alcaraz Caldas, 90 Porto Alegre, RS 90110-180
Av. Edvaldo Pereira Paiva, sn;;Porto Alegre;RS;90110-060;Anfiteatro Pôr-do-Sol ;(51)3228-4298;Praia de Belas;CENTRO;http://www.portoalegre.tur.br/ponto_turistico/anfiteatro_por-do-sol-porto_alegre-21-2-16-62.html;ESPAÇO CULTURAL;;-30,056064050618;-51,233071413371;Rio Grande do Sul, 90110-060, República Federativa do Brasil
Av. Erico Verissimo, 307;;Porto Alegre;RS;90160-181;Centro Municipal de Cultura, Arte e Lazer Lupicínio Rodrigues ;(51)3289-8050;Menino Deus;CENTRO;http://www2.portoalegre.rs.gov.br/smc/default.php?reg=6&p_secao=19;ESPAÇO CULTURAL;;-30,047862390916;-51,218456858072;Av. Erico Verissimo, 307 Porto Alegre, RS 90160-181
Av. Erico Verissimo, 307;;Porto Alegre;RS;90160-181;Teatro Renascença;(51)3289-8066;Menino Deus;CENTRO;http://www2.portoalegre.rs.gov.br/smc/default.php?reg=6&p_secao=19;ESPAÇO CULTURAL;;-30,04786603359;-51,21845490048;Av. Erico Verissimo, 307 Porto Alegre, RS 90160-181
Av. Erico Verissimo, 307;;Porto Alegre;RS;90160-181;Biblioteca Pública Municipal Josué Guimarães;(51)3289-8079;Menino Deus;CENTRO;http://www2.portoalegre.rs.gov.br/smc/default.php?reg=14&p_secao=55;ESPAÇO CULTURAL;;-30,047861082174;-51,218448708985;Av. Erico Verissimo, 307 Porto Alegre, RS 90160-181
Av. Erico Verissimo, 307;;Porto Alegre;RS;90160-181;Saguão – Espaço expositivo;(51)3289-8050;Menino Deus;CENTRO;http://www2.portoalegre.rs.gov.br/smc/default.php?reg=4&p_secao=33;ESPAÇO CULTURAL;;-30,047863642841;-51,218452170633;Av. Erico Verissimo, 307 Porto Alegre, RS 90160-181
Av. Erico Verissimo, 307;;Porto Alegre;RS;90160-181;Galeria Espaço Alternativo do Atelier Livre;(51)3289-8057;Menino Deus;CENTRO;http://www2.portoalegre.rs.gov.br/smc/default.php?reg=57&p_secao=34;ESPAÇO CULTURAL;;-30,047860282498;-51,218455017623;Av. Erico Verissimo, 307 Porto Alegre, RS 90160-181
Av. Erico Verissimo, 307;;Porto Alegre;RS;90160-181;Centro de Dança;(51)3289-8065;Menino Deus;CENTRO;;ESPAÇO CULTURAL;;-30,047865846019;-51,218456154199;Av. Erico Verissimo, 307 Porto Alegre, RS 90160-181
Av. Erico Verissimo, 307;;Porto Alegre;RS;90160-181;Editora da Cidade;;Menino Deus;CENTRO;http://www2.portoalegre.rs.gov.br/smc/default.php?p_secao=167;ESPAÇO CULTURAL;;-30,047863993276;-51,21845758043;Av. Erico Verissimo, 307 Porto Alegre, RS 90160-181
Av. Érico Veríssimo, 307;;Porto Alegre;RS;90160-180;Sala Álvaro Moreyra;(51)3289-8066;Menino Deus;CENTRO;www.portoalegre.rs.gov.br;ESPAÇO CULTURAL;;-30,047861942805;-51,218455691958;Av. Érico Veríssimo, 307 Porto Alegre, RS 90160-180
Av. Érico Veríssimo, 400;;Porto Alegre;RS;90160-180;Espaço RBS Memória RBS;(51)3218-6480;Azenha;CENTRO;www.rbs.com.br;ESPAÇO CULTURAL;;-30,048947278457;-51,21784521985;Av. Érico Veríssimo, 400 Porto Alegre, RS 90160-180
Av. Getúlio Vargas, 92; 1º Andar;Porto Alegre;RS;90150-002;Ases Escola de Música;(51)3225-6097;Menino Deus;CENTRO;http://www.myspace.com/grupoases;ESPAÇO DE FORMAÇÃO CULTURAL;música ;-30,045060366619;-51,220960284786;Avenida Getúlio Vargas, 92 - Menino Deus, Porto Alegre - RS, 90150-002, República Federativa do Brasil
Av. Goethe, 38;;Porto Alegre;RS;90430-100;Auditorium Tasso Corrêa, Instituto de Artes, Sala 62, Gabinete 1;(51)3308-4336;Rio Branco;CENTRO;http://www6.ufrgs.br/artes/atc/?p=apresentacao.php;ESPAÇO CULTURAL;;-30,029442862347;-51,201026332682;Av. Goethe, 38 Porto Alegre, RS 90430-100
Av. Independência, 270;;Porto Alegre;RS;90020-006;Museu de História da Medicina do Rio Grande do Sul (MUHM);(51)3029-2900;Centro Historico;CENTRO;http://www.muhm.org.br;ESPAÇO CULTURAL;;-30,029336941883;-51,218543527152;Av. Independência, 270 Porto Alegre, RS 90020-006
Av. Independência, 453;;Porto Alegre;RS;90035-070;SMC Casa Firmino Torelly ;(51)3289-8000;Independencia;CENTRO;http://www2.portoalegre.rs.gov.br/smc/default.php;ESPAÇO CULTURAL;;-30,029344366292;-51,217577424687;Av. Independência, 453 Porto Alegre, RS 90035-070
Av. Independência, 456;;Porto Alegre;RS;90035-075;Casa Godoy;(51)3289-8039;Independencia;CENTRO;;ESPAÇO CULTURAL;PATRIMONIO;-30,029142831555;-51,216781184463;Av. Independência, 456 Porto Alegre, RS 90035-075
Av. Independência, 745;;Porto Alegre;RS;90035-072;Subterrânea Atelier;(51)9733-1101;Independencia;CENTRO;http://www.subterranea.art.br/;ESPAÇO CULTURAL;;-30,02926266333;-51,213788748598;Av. Independência, 745 Porto Alegre, RS 90035-072
Av. Independência, 75;;Porto Alegre;RS;90010-300;Museu da Santa Casa Irmão Joaquim Francisco do Livramento;(51)32137258;Centro Historico;CENTRO;www.centrohistoricosantacasa.com.br;ESPAÇO CULTURAL;;-30,029402075271;-51,218236784349;Av. Independência, 75 Porto Alegre, RS 90010-300
Av. Independência, 925;;Porto Alegre;RS;90035-075;Teatro da OSPA  ;(51)3311-7919;Independencia;CENTRO; www.ospa.org.br;ESPAÇO CULTURAL;;-30,029501109971;-51,21164845383;Av. Independência, 925 Porto Alegre, RS 90035-075
Av. Ipiranga, 2000;;Porto Alegre;RS;90160-093;Planetário Professor José Batista Pereira UFRGS;(51)3316-5384;Santana;CENTRO;http://www.planetario.ufrgs.br/;ESPAÇO CULTURAL;;-30,044610634966;-51,208457128835;Av. Ipiranga, 2000 Porto Alegre, RS 90160-093
Av. Ipiranga, 2752; 2º andar Prédio 21106;Porto Alegre;RS;90160-093;Biblioteca UFRGS Farmácia;(51)3308-5234;Santa Cecilia;CENTRO;http://paginas.ufrgs.br/farmacia/infraestrutura/biblioteca-1;ESPAÇO DE FORMAÇÃO CULTURAL;livro, leitura;-30,043075004029;-51,202769770826;Avenida Ipiranga, 2752 - Santa Cecília, Porto Alegre - RS, 90160-093, República Federativa do Brasil
Av. Ipiranga, 389;;Porto Alegre;RS;90160-090;Centros de Desenvolvimento da Expressão;(51)3233-5032;Menino Deus;CENTRO;;ESPAÇO DE FORMAÇÃO CULTURAL;música, artes plásticas, dança, teatro;-30,048339701108;-51,224009236735;Av. Ipiranga, 389 Porto Alegre, RS 90160-090
Av. Ipiranga, 5200; 2º andar;Porto Alegre;RS;90160-001;Cinemark Shopping Bourbon Ipiranga;(51)3315-4299;Jardim Botanico;CENTRO;http://www.cinemark.com.br;ESPAÇO DE FORMAÇÃO CULTURAL;;-30,05497842686;-51,189363110542;Avenida Ipiranga, 5200 - Jardim Botânico, Porto Alegre - RS, 90160-001, República Federativa do Brasil
Av. Ipiranga, 5311;;Porto Alegre;RS;90160-000;Teatro AMRIGS;(51)3014-2001;Partenon;PARTENON;http://www.amrigs.org.br;ESPAÇO CULTURAL;;-30,056828818968;-51,186807004132;Av. Ipiranga, 5311 Porto Alegre, RS 90160-000
Av. Ipiranga, 5311; 2º Andar;Porto Alegre;RS;90160-000;Centro de Memória do Associativismo Médico do Instituto Vida Solidária;(51)3301-4202;Partenon;PARTENON;;ESPAÇO CULTURAL;;-30,056825184969;-51,186810610764;Av. Ipiranga, 5311 Porto Alegre, RS 90160-000
Av. Ipiranga, 6681;;Porto Alegre;RS;91530-000;Museu de Ciências e Tecnologia UBEA/PUCRS;(51)3320-3521;Partenon;PARTENON;www.pucrs.br/mct;ESPAÇO CULTURAL;;-30,057963736216;-51,176306816841;Av. Ipiranga, 6681 Porto Alegre, RS 91530-000
Av. Ipiranga, 6681;;Porto Alegre;RS;91530-000;Salão de Atos da PUC;(51)3320-3582;Partenon;PARTENON;http://www3.pucrs.br/;ESPAÇO CULTURAL;;-30,057958246266;-51,176309136011;Av. Ipiranga, 6681 Porto Alegre, RS 91530-000
Av. Ipiranga, 6681; Prédio 16;Porto Alegre;RS;91530-000;Biblioteca Central Irmão José Otão / PUCRS;(51)3320-3544;Partenon;PARTENON;http://www3.pucrs.br/portal/page/portal/biblioteca/Capa;ESPAÇO DE FORMAÇÃO CULTURAL;livro, leitura;-30,057959251544;-51,176310356754;Av. Ipiranga, 6681 Porto Alegre, RS 91530-000
Av. João Obino, 300;;Porto Alegre;RS;90470-150;Teatro do União;(51)3025-3809;Petropolis;CENTRO;http://www.gnu.com.br/projetos_5_da_cultura_eventos.php;ESPAÇO CULTURAL;;-30,034523442272;-51,181581607955;Av. João Obino, 300 Porto Alegre, RS 90470-150
Av. João Pessoa, 1831;;Porto Alegre;RS;90040-001;CineSystem Shopping João Pessoa;(51)3299-0339;Santana;CENTRO;http://www.cinesystem.com.br;ESPAÇO DE FORMAÇÃO CULTURAL;;-30,045842883897;-51,212902300403;Av. João Pessoa, 1831 Porto Alegre, RS 90040-001
Av. João Pessoa, 1831; 2° Piso;Porto Alegre;RS;90040-001;CenterShopping João Pessoa;(51)3223-4158;Santana;CENTRO;http://www.cinesystem.com.br/multiplex.asp?codCinema=18;ESPAÇO DE FORMAÇÃO CULTURAL;;-30,045841483142;-51,21290815219;Av. João Pessoa, 1831 Porto Alegre, RS 90040-001
Av. João Pessoa, 205;;Porto Alegre;RS;90040-000;Galeria de Arte Adesivo;(51)9147-0359;Centro Historico;CENTRO;;ESPAÇO CULTURAL;;-30,034361482814;-51,22163332568;Av. João Pessoa, 205 Porto Alegre, RS 90040-000
Av. João Pessoa, 52; Prédio 11109;Porto Alegre;RS;90040-001;Biblioteca UFRGS CIÊNCIAS ECONÔMICAS (ECO);(51)3308-3514;Farroupilha;CENTRO;http://www.ufrgs.br/bibeco/;ESPAÇO DE FORMAÇÃO CULTURAL;livro, leitura;-30,046286603812;-51,212305489353;Avenida João Pessoa, Porto Alegre - RS, 90040-001, República Federativa do Brasil
Av. João Pessoa, 80; Prédio 11108;Porto Alegre;RS;90040-000;DL-253 | Biblioteca Depositária das Nações Unidas ;(51)3308-3472;Centro Historico;CENTRO;http://www6.ufrgs.br/direito/?page_id=151;ESPAÇO DE FORMAÇÃO CULTURAL;livro, leitura;-30,034531131828;-51,221315740214;Avenida João Pessoa, 80 - Centro, Porto Alegre - RS, 90040-000, República Federativa do Brasil
Av. João Pessoa, 80; Prédio 11108 1º Andar;Porto Alegre;RS;90040-000;Biblioteca UFRGS Direito;(51)3308-3118;Centro Historico;CENTRO;http://www6.ufrgs.br/direito/?page_id=146;ESPAÇO DE FORMAÇÃO CULTURAL;livro, leitura;-30,034528269445;-51,221314491885;Av. João Pessoa, 80 Porto Alegre, RS 90040-000
Av. João Pessoa, 943;;Porto Alegre;RS;90040-000;Galeria de Arte da Ecarta;(51)4009-2970;Farroupilha;CENTRO;http://www.fundacaoecarta.org.br/galeria/default.asp;ESPAÇO CULTURAL;;-30,039904134787;-51,217486793504;Av. João Pessoa, 943 Porto Alegre, RS 90040-000
Av. João Wallig, 1800; 2º Piso;Porto Alegre;RS;91340-001;GNC Cinemas Iguatemi;(51)3299-0505;Passo Dareia;NOROESTE;http://www.gnccinemas.com.br;ESPAÇO DE FORMAÇÃO CULTURAL;;-30,023022440719;-51,163261996716;Avenida João Wallig, 1800 - Shopping Iguatemi Porto Alegre, Passo da Areia, Porto Alegre - RS, 91340-001, República Federativa do Brasil
Av. José Bonifácio,  Parque Farroupilha;;Porto Alegre;RS;90035-141;Brique da Redenção;;Bom Fim;CENTRO;www.briquedaredencao.com.br ;ESPAÇO DE FORMAÇÃO CULTURAL;artesanato, culinária;-30,036177729591;-51,210845418897;Posto da Brigada Militar - Parque Farroupilha - Avenida José Bonifácio - Farroupilha, Porto Alegre - RS, República Federativa do Brasil
Av. José Bonifácio,  Parque Farroupilha;;Porto Alegre;RS;90035-141;Brique de Sábado;;Bom Fim;CENTRO;http://www.briquedesabado.com.br/;ESPAÇO DE FORMAÇÃO CULTURAL;artesanato, culinária;-30,036177555326;-51,210844167118;Av. José Bonifácio,  Parque Farroupilha Porto Alegre, RS 90035-141
Av. José Bonifácio, 485;;Porto Alegre;RS;90040-130;Fita Tape;(51)3028-1217;Farroupilha;CENTRO;http://www.fitatape.art.br/;ESPAÇO CULTURAL;;-30,037970098991;-51,21295494519;Av. José Bonifácio, 485 Porto Alegre, RS 90040-130
Av. José Bonifácio, 95;;Porto Alegre;RS;90040-130;Koralle;(51)3226-0265;Farroupilha;CENTRO;http://www.koralle.com.br/;ESPAÇO CULTURAL;;-30,039807430002;-51,216085173495;Av. José Bonifácio, 95 Porto Alegre, RS 90040-130
Av. Julio de Castilhos, 159; 6° andar;Porto Alegre;RS;90030-130;Fundação Vera Chaves Barcellos Centro de Documentação e Pesquisa;(51)3228-1445;Centro Historico;CENTRO;http://www.fvcb.com/fvcb/site/;ESPAÇO CULTURAL;;-30,02663956256;-51,22654586407;Avenida Júlio de Castilhos, 159 - Centro, Porto Alegre - RS, 90030-130, República Federativa do Brasil
Av. Loureiro da Silva, 255;;Porto Alegre;RS;90010-460;Memorial da Câmara Municipal de Porto Alegre;(51)3220-4318;Centro Historico;CENTRO;http://www2.camarapoa.rs.gov.br/default.php?p_secao=115;ESPAÇO CULTURAL;;-30,037200033447;-51,236985849128;Av. Loureiro da Silva, 255 Porto Alegre, RS 90010-460
Av. Loureiro da Silva, 255;;Porto Alegre;RS;90010-420;Teatro Glênio Peres;(51)3220-4397;Centro Historico;CENTRO;http://www.camarapoa.rs.gov.br/;ESPAÇO CULTURAL;;-30,037197485041;-51,236983142972;Av. Loureiro da Silva, 255 Porto Alegre, RS 90010-420
Av. Loureiro da Silva, 255;;Porto Alegre;RS;90010-420;Galeria Clébio Sória;(51)3220-4100;Centro Historico;CENTRO;http://www.camarapoa.rs.gov.br/;ESPAÇO CULTURAL;;-30,02516879761;-51,202578751757;Av. Loureiro da Silva, 255 Porto Alegre, RS 90010-420
Av. Loureiro da Silva, 945;;Porto Alegre;RS;90010-420;Auditório da Escola Técnica Parobé;(51)3221-6953;Centro Historico;CENTRO;;ESPAÇO CULTURAL;;-30,038639848488;-51,229069780989;Av. Loureiro da Silva, 945 Porto Alegre, RS 90010-420
Av. Mariland, 1076;;Porto Alegre;RS;90440-191;Espaço Calliandra;(51)3333-5255;Auxiliadora;CENTRO;;ESPAÇO CULTURAL;;-30,019673208548;-51,194104136067;Av. Mariland, 1076 Porto Alegre, RS 90440-191
Av. Mariland, 597;;Porto Alegre;RS;90440-190;Via Livia Galeria de Arte;(51)3325-1695;Auxiliadora;CENTRO;;ESPAÇO CULTURAL;;-30,019205650879;-51,192669352652;Av. Mariland, 597 Porto Alegre, RS 90440-190
Av. Mauá, 1238; Estação Mercado;Porto Alegre;RS;90020-003;Biblioteca Livros sobre Trilhos;(51)3363-8477;Centro Historico;CENTRO;http://www.trensurb.gov.br/paginas/galeria_projetos_detalhes.php?codigo_sitemap=66&codigo_sitemap_pai=5;ESPAÇO DE FORMAÇÃO CULTURAL;livro;-30,026471591391;-51,228443030667;Avenida Mauá, 1238 - Marcílio Dias, Porto Alegre - RS, 90010-080, República Federativa do Brasil
Av. Moab Caldas, 2035;;Porto Alegre;RS;90880-310;Cinema Meio RealSala Sayonara da Luz Santos;(51)8123-3195;Santa Tereza;CRUZEIRO;http://www.mariamulher.org.br/cinema.htm;ESPAÇO DE FORMAÇÃO CULTURAL;;-30,068692515298;-51,216172832897;Av. Moab Caldas, 2035 Porto Alegre, RS 90880-310
Av. Moab Caldas, 400;;Porto Alegre;RS;90880-310;Auditório do Centro de Saúde Vila dos Comerciários ;(51)3289-4052;Santa Tereza;CRUZEIRO;;ESPAÇO CULTURAL;;-30,068690537141;-51,216176049974;Av. Moab Caldas, 400 Porto Alegre, RS 90880-310
Av. Moab Caldas, 400;;Porto Alegre;RS;90880-310;Auditório do Centro de Saúde Vila dos Comerciários ;(51)3289-4052;Santa Tereza;CRUZEIRO;;ESPAÇO CULTURAL;;-30,02868664814;-51,205861172278;Av. Moab Caldas, 400 Porto Alegre, RS 90880-310
Av. Nilo Peçanha, 1521;;Porto Alegre;RS;91330-000;Museu Anchieta de Ciências Naturais;(51)3328-7455;Boa Vista;NOROESTE;www.colegioanchieta.g12.br/museutive_menu_sub&marcador=15;ESPAÇO CULTURAL;;-30,027927298578;-51,174978381858;Av. Nilo Peçanha, 1521 Porto Alegre, RS 91330-000
Av. Osvaldo Aranha, ;;Porto Alegre;RS;90035-190;Araújo Vianna;(51)3311-5156;Bom Fim;CENTRO;www.araujovianna.com.br;ESPAÇO CULTURAL;;-30,033686573087;-51,216375461082;Avenida Osvaldo Aranha - Central, Porto Alegre - RS, 90035-190, República Federativa do Brasil
Av. Osvaldo Aranha, 277;;Porto Alegre;RS;90035-190;Museu da UFRGS;(51)3308-3390;Farroupilha;CENTRO;http://www.museu.ufrgs.br/novo/index.php;ESPAÇO CULTURAL;;-30,032898287862;-51,218025872462;Av. Osvaldo Aranha, 277 Porto Alegre, RS 90035-190
Av. Osvaldo Aranha, 522;;Porto Alegre;RS;90035-190;Galeria de Marte;;Bom Fim;CENTRO;http://www.galeriademarte.blogspot.com/;ESPAÇO CULTURAL;;-30,031927315712;-51,221805038679;Av. Osvaldo Aranha, 522 Porto Alegre, RS 90035-190
Av. Osvaldo Aranha, 744;;Porto Alegre;RS;90035-191;ACIRS;(51)3212-5440;Bom Fim;CENTRO;http://www.acirs.org.br/biblioteca.html;ESPAÇO DE FORMAÇÃO CULTURAL;livro, leitura, música, audiovisual ;-30,033574959665;-51,214766081337;Av. Osvaldo Aranha, 744 Porto Alegre, RS 90035-191
Av. Osvaldo Aranha, 744;;Porto Alegre;RS;90035-191;ACIRS Associação Beneficente e de Assistência Educacional do Rio Grande do Sul;(51)3212-5535;Bom Fim;CENTRO;http://www.acirs.org.br/;ESPAÇO DE FORMAÇÃO CULTURAL;Educação;-30,033573914139;-51,214765723304;Av. Osvaldo Aranha, 744 Porto Alegre, RS 90035-191
Av. Osvaldo Aranha, sn;;Porto Alegre;RS;90035-190;Associação da Imagem e Som de Porto Alegre Amispa;(51)3311-5156;Bom Fim;CENTRO;;ESPAÇO CULTURAL;;-30,033857127179;-51,21671017734;Av. Osvaldo Aranha, sn Porto Alegre, RS 90035-190
Av. Oswaldo Aranha, 99; 2º andar Prédio 11105;Porto Alegre;RS;90035-190;Biblioteca UFRGS Engenharia;(51)3308-3585;Centro Historico;CENTRO;http://www.biblioteca.eng.ufrgs.br/;ESPAÇO DE FORMAÇÃO CULTURAL;livro, leitura;-30,025520621235;-51,204081296548;Avenida Osvaldo Aranha, 99 - Centro, Porto Alegre - RS, 90035-190, República Federativa do Brasil
Av. Otávio Rocha, 115; 1º andar;Porto Alegre;RS;90020-150;Museu do Seguro do Rio Grande do Sul;(51)3224-6661;Centro Historico;CENTRO;;ESPAÇO CULTURAL;;-30,028690265615;-51,225562021748;Avenida Otávio Rocha, 115 - Centro, Porto Alegre - RS, 90020-150, República Federativa do Brasil
Av. Padre Cacique, 2000;2º andar do Gigantinho;Porto Alegre;RS;90840-690;Fundação Iberê Camargo;(51)3247-8000;Praia de Belas;CENTRO;http://www.iberecamargo.org.br/;ESPAÇO CULTURAL;;-30,06794107764;-51,236611705945;Avenida Padre Cacique, 2000 - Praia de Belas, Porto Alegre - RS, 90840-690, República Federativa do Brasil
Av. Padre Cacique, 891;;Porto Alegre;RS;90840-690;Gigantinho;(51)3230-4668;Praia de Belas;CENTRO;;ESPAÇO CULTURAL;;-30,065354435651;-51,233917910625;Av. Padre Cacique, 891 Porto Alegre, RS 90840-690
Av. Padre Cacique, 891; 2º andar ;Porto Alegre;RS;90840-690;Auditório do FECI ;(51)3230-4671;Praia de Belas;CENTRO;http://www.internacional.com.br/pagina.php?modulo=5&setor=9&secao=63&subsecao=;ESPAÇO CULTURAL;;-30,065353430038;-51,233917567873;Av. Padre Cacique, 891 Porto Alegre, RS 90840-690
Av. Padre Cacique, 891; Bairro Menino Deus;Porto Alegre;RS;;Zeferino Brazil FECI Internacional;51 32304671;;;http://www.internacional.com.br/pagina.php?modulo=5&setor=9&secao=63&subsecao=;ESPAÇO DE FORMAÇÃO CULTURAL;livro;-30,065354761145;-51,233922912275;Avenida Padre Cacique, 891 - Praia de Belas, Porto Alegre - RS, 90840-690, República Federativa do Brasil
Av. Paulo Gama, 110;;Porto Alegre;RS;90040-060;Salão de Atos UFRGS;(51)3308-3066;Farroupilha;CENTRO;http://www6.ufrgs.br/salaodeatos/;ESPAÇO CULTURAL;;-30,033290449359;-51,218766563687;Av. Paulo Gama, 110 Porto Alegre, RS 90040-060
Av. Paulo Gama, 110; 2º Andar;Porto Alegre;RS;90040-060;Sala Fahrion UFRGS;(51)3316-3080;Farroupilha;CENTRO;http://www.difusaocultural.ufrgs.br;ESPAÇO CULTURAL;;-30,033286008167;-51,218766101572;Av. Paulo Gama, 110 Porto Alegre, RS 90040-060
Av. Paulo Gama, 110; Prédio 12201;Porto Alegre;RS;90040-060;Biblioteca UFRGS EDUCAÇÃO;(51)3308-3620;Farroupilha;CENTRO;http://www.ufrgs.br/faced/setores/biblioteca/;ESPAÇO DE FORMAÇÃO CULTURAL;livro, leitura;-29,978665510723;-51,114383681337;Av. Paulo Gama, 110 Porto Alegre, RS 90040-060
Av. Pe. Cacique, 891;;Porto Alegre;RS;90840-690;Museu Ruy Tedesco (Sport Club Internacional);(51)3230-4669;Praia de Belas;CENTRO;http://www.internacional.com.br/pagina.php?modulo=5&setor=170&secao=155;ESPAÇO CULTURAL;;-30,065345818991;-51,23391596226;Av. Pe. Cacique, 891 Porto Alegre, RS 90840-690
Av. Praia de Belas, 1181;;Porto Alegre;RS;90110-000;GNC Cinemas Praia de Belas;(51)3231-6695;Menino Deus;CENTRO;http://www.gnccinemas.com.br;ESPAÇO DE FORMAÇÃO CULTURAL;;-30,049350349761;-51,227794461978;Av. Praia de Belas, 1181 Porto Alegre, RS 90110-000
Av. Pres. João Goulart, 551;;Porto Alegre;RS;90020-020;Descentralização da Cultura;(51)3289-8114;Centro Historico;CENTRO;http://www2.portoalegre.rs.gov.br/smc/default.php?p_secao=222[;ESPAÇO CULTURAL;;-30,034357123387;-51,240624712075;Avenida Presidente João Goulart, 551 - Marcílio Dias, Porto Alegre - RS, 90010-120, República Federativa do Brasil
Av. Presidente João Goulart, 551;;Porto Alegre;RS;90010-120;Brique do Gasômetro;(51)3289-6740;Centro Historico;CENTRO;;ESPAÇO DE FORMAÇÃO CULTURAL;artesanato, culinária;-30,033289905324;-51,239937270684;Avenida Presidente João Goulart, Porto Alegre - RS, 90010-120, República Federativa do Brasil
Av. Presidente João Goulart, 551;;Porto Alegre;RS;90010-120;Centro Cultural Usina do Gasômetro;(51)3289-8100;Centro Historico;CENTRO;http://www2.portoalegre.rs.gov.br/smc/default.php?reg=7&p_secao=19;ESPAÇO CULTURAL;PATRIMONIO;-30,03433882695;-51,240610331475;Av. Presidente João Goulart, 551 Porto Alegre, RS 90010-120
Av. Presidente João Goulart, 551;;Porto Alegre;RS;90010-120;Espaço Vasco Prado;(51)3212-5979;Centro Historico;CENTRO;;ESPAÇO CULTURAL;;-30,034341312555;-51,240610108544;Av. Presidente João Goulart, 551 Porto Alegre, RS 90010-120
Av. Presidente João Goulart, 551;;Porto Alegre;RS;90010-120;Teatro Elis Regina;(51)3212-5979;Centro Historico;CENTRO;;ESPAÇO CULTURAL;;-30,034336994387;-51,240612102144;Av. Presidente João Goulart, 551 Porto Alegre, RS 90010-120
Av. Presidente João Goulart, 551;;Porto Alegre;RS;90010-120;Museu do Vinho e Enoteca;(51)3212-5979;Centro Historico;CENTRO;;ESPAÇO CULTURAL;;-30,034339680254;-51,240610019063;Av. Presidente João Goulart, 551 Porto Alegre, RS 90010-120
Av. Presidente João Goulart, 551;;Porto Alegre;RS;90010-120;Depósito de Teatro  ;(51)3026-4468;Centro Historico;CENTRO;www.depositodeteatro.com.br;ESPAÇO CULTURAL;;-30,034337631704;-51,240615268653;Av. Presidente João Goulart, 551 Porto Alegre, RS 90010-120
Av. Presidente João Goulart, 551;;Porto Alegre;RS;90010-120;Santa Estação Cia de Teatro;(51)9253-5034;Centro Historico;CENTRO;;ESPAÇO CULTURAL;;-30,034334785121;-51,240609763299;Av. Presidente João Goulart, 551 Porto Alegre, RS 90010-120
Av. Presidente João Goulart, 551;;Porto Alegre;RS;90010-120;Teatro Elis Regina ;(51)3212-5979;Centro Historico;CENTRO;;ESPAÇO CULTURAL;;-30,034339898082;-51,240608495462;Av. Presidente João Goulart, 551 Porto Alegre, RS 90010-120
Av. Presidente João Goulart, 551;;Porto Alegre;RS;90010-120;Sala de cinema PF Gastal;(51)3289-8135;Centro Historico;CENTRO;;ESPAÇO CULTURAL;;-30,034341963046;-51,240604919444;Av. Presidente João Goulart, 551 Porto Alegre, RS 90010-120
Av. Presidente João Goulart, 551;;Porto Alegre;RS;90010-120;Sala de cinema PF Gastal;(51)3289-8135;Centro Historico;CENTRO;;ESPAÇO DE FORMAÇÃO CULTURAL;;-30,034345578164;-51,2406097927;Av. Presidente João Goulart, 551 Porto Alegre, RS 90010-120
Av. Presidente João Goulart, 551; 2º Andar;Porto Alegre;RS;90010-120;Sala Julieta Battistioli ;(51)3212-5979;Centro Historico;CENTRO;;ESPAÇO CULTURAL;;-30,034337083323;-51,24061183637;Av. Presidente João Goulart, 551 Porto Alegre, RS 90010-120
Av. Presidente João Goulart, 551; Térreo;Porto Alegre;RS;90010-120;Usina do Papel;(51)3212-5979;Centro Historico;CENTRO;http://www2.portoalegre.rs.gov.br/smc/default.php?p_secao=136;ESPAÇO CULTURAL;;-30,034338927323;-51,240606934923;Av. Presidente João Goulart, 551 Porto Alegre, RS 90010-120
Av. Presidente João Goulart, 551;3º andar;Porto Alegre;RS;90010-120;Galeria Lunara;(51)3289-8133;Centro Historico;CENTRO;http://www2.portoalegre.rs.gov.br/smc/default.php?p_secao=49;ESPAÇO CULTURAL;;-30,034339044816;-51,2406070429;Av. Presidente João Goulart, 551 Porto Alegre, RS 90010-120
Av. Presidente João Goulart, 551;4º andar;Porto Alegre;RS;90010-120;Espaço 4o andar;(51)3212-5979;Centro Historico;CENTRO;;ESPAÇO CULTURAL;;-30,034342309188;-51,240606845228;Av. Presidente João Goulart, 551 Porto Alegre, RS 90010-120
Av. Presidente João Goulart, 551;Térreo;Porto Alegre;RS;90010-120;Galeria Iberê Camargo;(51)3212-5979;Centro Historico;CENTRO;http://www2.portoalegre.rs.gov.br/smc/default.php?reg=1&p_secao=33;ESPAÇO CULTURAL;PATRIMONIO;-30,034337222558;-51,2406078664;Av. Presidente João Goulart, 551 Porto Alegre, RS 90010-120
Av. Presidente João Goulart, 551;Térreo;Porto Alegre;RS;90010-120;Galeria dos Arcos;(51)3289-8133;Centro Historico;CENTRO;http://www2.portoalegre.rs.gov.br/smc/default.php?p_secao=48;ESPAÇO CULTURAL;PATRIMONIO;-30,034335453939;-51,240612033843;Av. Presidente João Goulart, 551 Porto Alegre, RS 90010-120
Av. Presidente João Goulart, 551; 3º andar;Porto Alegre;RS;90010-120;Galeria Lunara;(51)3289-8133;Centro Historico;CENTRO;http://www2.portoalegre.rs.gov.br/smc/default.php?p_secao=49;ESPAÇO CULTURAL;fotografia;-30,034341105;-51,240606223079;Av. Presidente João Goulart, 551 Porto Alegre, RS 90010-120
Av. Presidente João Goulart, 551; Térreo;Porto Alegre;RS;90010-120;Galeria Iberê Camargo;(51)2212-5979;Centro Historico;CENTRO;http://www2.portoalegre.rs.gov.br/smc/default.php?reg=1&p_secao=33;ESPAÇO CULTURAL;;-30,03433854111;-51,240607748759;Av. Presidente João Goulart, 551 Porto Alegre, RS 90010-120
Av. Protásio Alves, 2876;;Porto Alegre;RS;90410-000;Mundo Arte Global;(51)3028-4554;Petropolis;CENTRO;;ESPAÇO CULTURAL;;-30,027703346096;-51,19739090849;Avenida Protásio Alves, 2876 - Petrópolis, Porto Alegre - RS, 90410-000, República Federativa do Brasil
Av. Quaraí, 408;;Porto Alegre;RS;90830-090;Circo Teatro Halle Hou;(51)3242-3302;Nonoai;CENTRO-SUL;;ESPAÇO CULTURAL;;-30,087602719389;-51,220652412586;Av. Quaraí, 408 Porto Alegre, RS 90830-090
Av. Salgado Filho, 340;;Porto Alegre;RS;94475-000;Sala Alziro Azevedo UFRGS;(51)3316-3161;;CENTRO;http://www.difusaocultural.ufrgs.br;ESPAÇO CULTURAL;;-30,033563032551;-51,220625687645;Av. Salgado Filho, 340 Porto Alegre, RS 94475-000
Av. São Pedro, 778;;Porto Alegre;RS;91570-000;Biblioteca Instituto Polônia;(51)3342-1060;Sao Geraldo;HUMAITA/NAVEGANTES;http://www.poloniapoa.org/biblioteca.php;ESPAÇO DE FORMAÇÃO CULTURAL;livro, pesquisa;-30,032564484153;-51,220662459596;Rua São Pedro, 778 - Lomba Pinheiro, Porto Alegre - RS, 91570-000, República Federativa do Brasil
Av. Sarmento Leite, 425;;Porto Alegre;RS;90050-170;Museu do Motor da Escola de Engenharia da Universidade Federal do RS;(51)3308-4506;Farroupilha;CENTRO;http://www.mecanica.ufrgs.br/mmotor/;ESPAÇO CULTURAL;;-30,032978432431;-51,22102266499;Av. Sarmento Leite, 425 Porto Alegre, RS 90050-170
Av. Siqueira Campos, 1300; 13º andar;Porto Alegre;RS;90010-001;PGM de Porto Alegre;(51)3289-1458;Centro Historico;CENTRO;http://www2.portoalegre.rs.gov.br/pgm/default.php?reg=23&p_secao=6;ESPAÇO DE FORMAÇÃO CULTURAL;arquivo, livro, leitura;-30,027735395633;-51,228946487685;Rua Siqueira Campos, 1300 - Centro, Porto Alegre - RS, 90010-001, República Federativa do Brasil
Av. Túlio de Rose, 100;;Porto Alegre;RS;91340-110;Galeria Instituto Moreira Salles;(51)3341-0624;Passo Dareia;NOROESTE;;ESPAÇO CULTURAL;;-30,022694922015;-51,161791953509;Avenida Túlio de Rose, 100 - Passo da Areia, Porto Alegre - RS, 91340-110, República Federativa do Brasil
Av. Túlio de Rose, 80; 2º andar;Porto Alegre;RS;91340-110;Teatro do Bourbon Country ;(51)3375-3700;Passo Dareia;NOROESTE;http://www.teatrodobourboncountry.com.br/;ESPAÇO CULTURAL;;-30,022683649627;-51,161786922435;Avenida Túlio de Rose, 80 - Passo da Areia, Porto Alegre - RS, 91340-110, República Federativa do Brasil
Av. Túlio Rose, 80;;Porto Alegre;RS;91340-110;Unibanco Arteplex Shopping Borboun Country;;Passo Dareia;NOROESTE;;ESPAÇO DE FORMAÇÃO CULTURAL;;-30,042635373679;-51,219181703021;Avenida Túlio de Rose, 80 - Passo da Areia, Porto Alegre - RS, 91340-110, República Federativa do Brasil
Av. Venâncio Aires, 74;;Porto Alegre;RS;90040-191;Casa da Gravura;(51)3013-5036;Cidade Baixa;CENTRO;http://www.casadagravura.com.br/;ESPAÇO CULTURAL;;-30,039277101849;-51,195914963329;Avenida Venâncio Aires, 74 - Ciade Baixa, Porto Alegre - RS, 90040-191, República Federativa do Brasil
Av. Wenceslau Escobar, 2369;205;Porto Alegre;RS;91900-000;Academia Compasso Musical;(51)3268-2085;Tristeza;SUL;;ESPAÇO DE FORMAÇÃO CULTURAL;música;;;Avenida Wenceslau Escobar, 2369 - Tristeza, Porto Alegre - RS, 91900-000, República Federativa do Brasil
Av. Benjamim Costant, 1273;;Porto Alegre;RS;90550-004;Arte Nobre;(51)33434633;Sao Geraldo;HUMAITA/NAVEGANTES;http://www.artenobre.com.br/;ESPAÇO CULTURAL;;-30,012758040114;-51,194482561261;Av.Benjamim Costant, 1273 Porto Alegre, RS 90550-004
Av.Otávio Rocha, 40; Sala 16;Porto Alegre;RS;90020-151;Sindimusrs Sindicato dos Músicos Profissionais do Estado do Rio Grande do Sul;(51)3224-8573;Centro Historico;CENTRO;http://www.sindimusirs.com.br;ESPAÇO DE FORMAÇÃO CULTURAL;;-30,028490332007;-51,22620249298;Avenida Otávio Rocha, 40 - Centro, Porto Alegre - RS, 90020-151, República Federativa do Brasil
Av.Severo Dullius, sn;;Porto Alegre;RS;90200-310;Espaço Cultura;;Sao Joao;NOROESTE;;ESPAÇO CULTURAL;artes visuais, escultura, fotografia;-29,994298809119;-51,171603156131;Av.Severo Dullius, sn Porto Alegre, RS 90200-310
Avenida Augusto de Carvalho, 1133;;Porto Alegre;RS;90010-300;Memorial SERPRO  Serviço Federal de Processamentos de Dados de Porto Alegre;(51)2129-1231;Centro Historico;CENTRO;www.serpro.gov.br;ESPAÇO CULTURAL;;-30,036654019149;-51,232781774969;Avenida Augusto de Carvalho, 1133 Porto Alegre, RS 90010-300
Avenida Borges de Medeiros, 108;;Porto Alegre;RS;90020-020;Cinemateca Capitólio ;(51)3226-3311;Centro Historico;CENTRO;http://www.capitolio.org.br/;ESPAÇO CULTURAL;;-30,027994872489;-51,228276741132;Avenida Borges de Medeiros, 108 Porto Alegre, RS 90020-020
Avenida Borges de Medeiros, 108;;Porto Alegre;RS;90020-020;Cinemateca Capitólio;(51)3226-3311;Centro Historico;CENTRO;http://www.capitolio.org.br/;ESPAÇO CULTURAL;;-30,027996568209;-51,228281623152;Avenida Borges de Medeiros, 108 Porto Alegre, RS 90020-020
Avenida Nova York, 48 e 52;;Porto Alegre;RS;90550-070;72 NY Gallery Garden;(51)3012-0172;Auxiliadora;CENTRO;http://www.72newyork.com.br;ESPAÇO CULTURAL;fotografia, artes visuais;-30,022017309409;-51,1950054638;Avenida Nova York, 48 e 52 Porto Alegre, RS 90550-070
Avenida Osvaldo Aranha, sn;;Porto Alegre;RS;90035-190;Auditório Araújo Vianna;(51)3311-5156;Bom Fim;CENTRO;www.araujovianna.com.br;ESPAÇO CULTURAL;PATRIMONIO, MUSICA;-30,033852407654;-51,216707534129;Avenida Osvaldo Aranha, sn Porto Alegre, RS 90035-190
Avenida Otto Niemeyer, 650;;Porto Alegre;RS;91910-001;Anfiteatro Padre Réus;(51)3268-6811;Tristeza;SUL;http://www.escolapadrereus.com.br/;ESPAÇO CULTURAL;;-30,109593604852;-51,253159316181;Avenida Otto Niemeyer, 650 Porto Alegre, RS 91910-001
Avenida Plínio Kroeff, ;;Porto Alegre;RS;91150-170;Complexo Cultural do Porto Seco ;(51)3289-8121;Sarandi;NORTE;www.portoalegre.rs.gov.br/carnaval;ESPAÇO CULTURAL;;-29,998359965747;-51,114542574805;Avenida Plínio Kroeff, Porto Alegre - RS, 91150-170, República Federativa do Brasil
Avenida Presidente João Goulart, 551;;Porto Alegre;RS;90010-120;Teatro Neelic, Usina do Gasômetro Sala 504;(51)3391-5931;Centro Historico;CENTRO;http://www.neelic.com.br/portal/;ESPAÇO CULTURAL;;-30,034337088099;-51,240603700675;Avenida Presidente João Goulart, 551 Porto Alegre, RS 90010-120
Estrada João de Oliveira Remião, 2874;;Porto Alegre;RS;91787-750;Museu Comunitário da Lomba do Pinheiro / Memorial da Família Remião;(51)3028-2049;Lomba do Pinheiro;LOMBA DO PINHEIRO;;ESPAÇO CULTURAL;;-30,10164084725;-51,124493996357;Estrada João de Oliveira Remião, 2874 Porto Alegre, RS 91787-750
Estrada João de Oliveira Remião, 7193; Parada 18;Porto Alegre;RS;91787-750;Leverdógil de Freitas IPDAE;(51)3336-3713;Lomba do Pinheiro;LOMBA DO PINHEIRO;http://www.ipdae.org/biblioteca.php?menu=biblioteca&sub=biblioteca;ESPAÇO DE FORMAÇÃO CULTURAL;livro, leitura;-30,128617077534;-51,098429728402;Estrada João de Oliveira Remião, 7193 - Lomba Pinheiro, Porto Alegre - RS, 91787-750, República Federativa do Brasil
Largo dos Campeões, 1;;Porto Alegre;RS;90880-440;Museu do Grêmio Football Porto Alegrense Ermíno Bittencourt ;(51)3218-2844;Medianeira;CRUZEIRO;http://www.gremio.net/news/view.aspx?id=6221;ESPAÇO CULTURAL;;-30,059067374399;-51,214485801537;Largo dos Campeões, 1 Porto Alegre, RS 90880-440
Largo Jornalista Glênio Peres, ;;Porto Alegre;RS;90020-020;Mercado Público;(51)3289-4801;Centro Historico;CENTRO;http://www2.portoalegre.rs.gov.br/mercadopublico/default.php?p_secao=20;ESPAÇO CULTURAL;;-30,028076585884;-51,22714113369;Largo Jornalista Glênio Peres - Centro, Porto Alegre - RS, 90020-050, República Federativa do Brasil
Largo Jornalista Glênio Peres, ;;Porto Alegre;RS;90020-070;Galeria Mario Quintana;(51)3363-8477;Centro Historico;CENTRO;http://www.trensurb.gov.br/paginas/galeria_projetos_detalhes.php?codigo_sitemap=65&codigo_sitemap_pai=5;ESPAÇO CULTURAL;fotografia, artes visuais;-30,02808008182;-51,22714206491;Largo Jornalista Glênio Peres - Centro, Porto Alegre - RS, 90020-050, República Federativa do Brasil
Largo Jornalista Glênio Peres,  Mercado Público Central; Sala 38;Porto Alegre;RS;90020-020;Memorial do Mercado;(51)3225-0793;Centro Historico;CENTRO;http://www2.portoalegre.rs.gov.br/mercadopublico/default.php?p_secao=42;ESPAÇO CULTURAL;;-30,032299408795;-51,229803630187;Central, Porto Alegre - RS, 90010-300, República Federativa do Brasil
Largo Jornalista Glênio Peres,  Mercado Público Central; Sala 38;Porto Alegre;RS;90020-020;Livraria Ilhota;(51)3225-0793;Centro Historico;CENTRO;http://www2.portoalegre.rs.gov.br/smc/default.php?reg=1&p_secao=168;ESPAÇO CULTURAL;;-30,032299408795;-51,229803630187;
Largo Jornalista Glênio Peres,  Mercado Público Central; Sala 38;Porto Alegre;RS;90020-020;Observatório da Cultura;(51)3225-0793;Centro Historico;CENTRO;http://www2.portoalegre.rs.gov.br/smc/default.php?reg=5&p_secao=19;ESPAÇO CULTURAL;;-30,079125646126;-51,22539329283;
Largo Vespasiano Julio Veppo, 11; Estação Rodoviária ;Porto Alegre;RS;90035-040;Galeria Pública de Street Art;(51)3363-8413;Centro Historico;CENTRO;;ESPAÇO CULTURAL;artes visuais, grafitti;-30,034786629668;-51,226222970653;
Luiz Guaranha, 44;;Porto Alegre;RS;90160-110;Associação Comunitária Cultural Quilombo do Área;(51)3221-5859;Menino Deus;CENTRO;;ESPAÇO DE FORMAÇÃO CULTURAL;;-30,032559207232;-51,22956931274;Luiz Guaranha, 44 Porto Alegre, RS 90160-110
Praça da Alfândega,  sn;;Porto Alegre;RS;90010-150;MARGS Museu de Arte do Rio Grande do Sul Ado Malagoni;(51)3227-2311;Centro Historico;CENTRO;www.margs.rs.gov.br;ESPAÇO CULTURAL;;-30,032286431165;-51,229793028042;Centro, Porto Alegre - RS, 90010-150, República Federativa do Brasil
Praça da Matriz, 101;;Porto Alegre;RS;90010-300;Teatro Dante Barone;(51)3210-2076;Centro Historico;CENTRO;http://www2.al.rs.gov.br/drpac/TeatroDanteBarone/tabid/3270/language/pt-BR/Default.aspx;ESPAÇO CULTURAL;;-30,01405468787;-51,173441093698;Praça da Matriz, 101 Porto Alegre, RS 90010-300
Praça Marechal deodoro 55,  5º andar ;;Porto Alegre;RS;90010-906;Arquivo e Biblioteca do Memorial do Judiciário Gaúcho ;(51)3210-6290;Centro Historico;CENTRO;http://www1.tjrs.jus.br/site/publicacoes/biblioteca/;ESPAÇO DE FORMAÇÃO CULTURAL;arquivo;-30,032848865886;-51,229601257807;Praça Marechal Deodoro, 55 - Centro, Porto Alegre - RS, 90010-300, República Federativa do Brasil
Praça Marechal Deodoro,  sn;;Porto Alegre;RS;90010-300;Theatro São Pedro;(51)3227-5100;Centro Historico;CENTRO;http://www.teatrosaopedro.com.br/;ESPAÇO CULTURAL;;-30,042616602693;-51,18026006908;Central, Porto Alegre - RS, 90010-300, República Federativa do Brasil
Praça Marechal Deodoro, 101;;Porto Alegre;RS;90010-300;Espaço Novos Talentos;(51)3295-8659;Centro Historico;CENTRO;;ESPAÇO CULTURAL;;-30,024364161213;-51,193535627033;Praça Marechal Deodoro, 101 Porto Alegre, RS 90010-300
Praça Marechal Deodoro, 110; Centro Histórico;Porto Alegre;RS;90010-300;Memorial do Ministério Público;(51)3295-8650;Centro Historico;;www.mp.rs.gov.br/memorial;ESPAÇO CULTURAL;;-30,032549246664;-51,229547504744;Praça Marechal Deodoro, 110 - Centro, Porto Alegre - RS, 90010-300, República Federativa do Brasil
Praça Marechal Deodoro, 55;;Porto Alegre;RS;90010-300;Museu do Memorial do Judiciário do Rio Grande do Sul;(51)3210-7176;;CENTRO;www.tj.rs.gov.br;ESPAÇO CULTURAL;;-30,032295754394;-51,229799868533;Praça Marechal Deodoro, 55 Porto Alegre, RS 90010-300
Rua 24 de Outubro, 112;;Porto Alegre;RS;90510-002;Goethe-Institut;(51)2118-7800;Independencia;CENTRO;http://www.goethe.de/ins/br/poa/bib/knt/ptindex.htm;ESPAÇO DE FORMAÇÃO CULTURAL;livro, leitura, música, audiovisual ;-30,027842956903;-51,205877236133;Rua Vinte e Quatro de Outubro, 112 - Independência, Porto Alegre - RS, 90510-002, República Federativa do Brasil
Rua 24 de Outubro, 112;;Porto Alegre;RS;90510-002;Instituto Goethe     ;(51)2118-7800;Independencia;CENTRO;www.goethe.de/br/poa/;ESPAÇO CULTURAL;;-30,027591681607;-51,204872755833;Rua 24 de Outubro, 112 Porto Alegre, RS 90510-002
Rua 24 de Outubro, 200;;Porto Alegre;RS;90510-002;Auditório da Galera do DMAE Centro Histórico-Cultural Antônio Klinger Filho;(51)3289-9727;Moinhos de Vento;CENTRO;http://www2.portoalegre.rs.gov.br/dmae/default.php?p_secao=243;ESPAÇO CULTURAL;;-30,027589707162;-51,20487603107;Rua Vinte e Quatro de Outubro, 200 - Moinhos de Vento, Porto Alegre - RS, 90510-002, República Federativa do Brasil
Rua 24 de Outubro, 200;;Porto Alegre;RS;90510-002;Galeria de Arte do DMAE;(51)3289-9727;Moinhos de Vento;CENTRO;http://www2.portoalegre.rs.gov.br/dmae/default.php?p_secao=243;ESPAÇO CULTURAL;artes visuais, fotografia;-30,02908804536;-51,230000727355;Rua 24 de Outubro, 200 Porto Alegre, RS 90510-002
Rua 7 de Setembro 1020, ;;Porto Alegre;RS;90010-191;Espaço Cultural Correios;(51)3220-8468;Centro Historico;CENTRO;;ESPAÇO CULTURAL;;-30,029086827711;-51,229997599664;Rua Sete de Setembro, 1020 - Centro, Porto Alegre - RS, 90010-191, República Federativa do Brasil
Rua 7 de Setembro, 1020; 2º andar sala 2;Porto Alegre;RS;90010-191;Arquivo Histórico do Rio Grande do Sul;(51)3225-7880;Bom Fim;CENTRO;http://www.cultura.rs.gov.br/principal.php?inc=arq_hist;ESPAÇO DE FORMAÇÃO CULTURAL;arquivo;-30,031057770275;-51,235370487009;Rua Sete de Setembro, 1020 - Centro, Porto Alegre - RS, 90010-191, República Federativa do Brasil
Rua 7 de Setembro, 388;;Porto Alegre;RS;90010-300;Memorial TCE;(51)3214-9787;Centro Historico;CENTRO;http://www.tce.rs.gov.br/;ESPAÇO CULTURAL;;-30,01394217246;-51,204507262272;Rua Sete de Setembro, 388 - Centro, Porto Alegre - RS, 90010-190, República Federativa do Brasil
Rua A. Tamandaré, 678;102;Porto Alegre;RS;90220-030;Associação Cultural Italia-Porto Alegre Onlus;(51)9334-9987;Floresta;CENTRO;http://www.italia-portoalegre.eu;ESPAÇO DE FORMAÇÃO CULTURAL;Cultura italiana;-30,058488908578;-51,165435668186;Rua Almirante Tamandaré, 678 - Floresta, Porto Alegre - RS, 90220-030, República Federativa do Brasil
Rua Albion, 385;;Porto Alegre;RS;91530-010;Museu Itinerante Memória Carris;(51)3289-2143;Partenon;PARTENON;www.carris.com.br;ESPAÇO CULTURAL;;-30,030795539369;-51,228473130474;Rua Albion, 385 - Partenon, Porto Alegre - RS, 91530-010, República Federativa do Brasil
Rua Andrade Neves, 100; CJ 301/302;Porto Alegre;RS;90010-210;Fundação Teixeirinha;(51)3225-3575;Centro Historico;CENTRO;http://www.teixeirinha.com.br/fundacao.asp;ESPAÇO DE FORMAÇÃO CULTURAL;arquivo, leitura, música, audiovisual;-30,153235369671;-51,145213116292;Rua General Andrade Neves, 100 - Centro, Porto Alegre - RS, 90010-210, República Federativa do Brasil
Rua André Puente, 318;;Porto Alegre;RS;90035-150;Instituto Estadual do Livro;(51)3311-7311;Independencia;CENTRO;;ESPAÇO DE FORMAÇÃO CULTURAL;livro;-30,028099952818;-51,210789036884;Rua André Puente, 318 Porto Alegre, RS 90035-150
Rua Antônio Rocha Meirelles Leite, 50;;Porto Alegre;RS;91790-150;Biblioteca Municipal da Restinga;(51)3245-1334;Restinga;RESTINGA;http://www2.portoalegre.rs.gov.br/smc/default.php?reg=4&p_secao=55;ESPAÇO CULTURAL;LITERATURA;-30,071671873078;-51,227441261321;Rua Antônio Rocha Meirelles Leite - Restinga, Porto Alegre - RS, 91790-150, República Federativa do Brasil
Rua Ariovaldo Alvez Paz, 200;;Porto Alegre;RS;91180-515;AECPARS Associação Entidades Carnavalescas de Porto Alegre e do Rio Grande do Sul;(51)3348-9202;Rubem Berta;EIXO BALTAZAR;http://www.carnavalpoa.com.br/;ESPAÇO DE FORMAÇÃO CULTURAL;Carnaval;-30,029838105459;-51,229040800201;Rua Ariovaldo Alves Paz, 200 - Rubem Berta, Porto Alegre - RS, 91180-515, República Federativa do Brasil
Rua Banco da Província, 105;;Porto Alegre;RS;90840-030;Museu de Geologia da Companhia de Pesquisas e Recursos Minerais  CPRM;(51)3406-7300;Santa Tereza;CRUZEIRO;http://www.cprm.gov.br/museudegeologia;ESPAÇO CULTURAL;;-30,009253303513;-51,188534425185;Rua Banco da Província, 105 - Santa Tereza, Porto Alegre - RS, 90840-030, República Federativa do Brasil
Rua Barão de Cotegipe, 400;;Porto Alegre;RS;90540-020;Memorial Sogipa;(51)3325-7239;Sao Joao;NOROESTE;www.sogipa.esp.br;ESPAÇO CULTURAL;;-30,009283549533;-51,188517878237;Rua Barão do Cotegipe, 400 - São João, Porto Alegre - RS, 90540-020, República Federativa do Brasil
Rua Barão de Cotegipe, 415;;Porto Alegre;RS;90540-020;Anfiteatro do Sogipa;(51)3325-7270;Sao Joao;NOROESTE;http://www.sogipa.com;ESPAÇO CULTURAL;;-30,009285928016;-51,188518078824;Rua Barão do Cotegipe, 415 - São João, Porto Alegre - RS, 90540-020, República Federativa do Brasil
Rua Barão de Cotegipe, 415;;Porto Alegre;RS;90540-020;Biblioteca J.Aloys Friederichs SOGIPA;(51)3325-7276;Sao Joao;NOROESTE;http://www.sogipa.com/2010/biblioteca.php;ESPAÇO DE FORMAÇÃO CULTURAL;livro, leitura, ;-30,058773737982;-51,219775583924;Rua Barão de Cotegipe, 415 Porto Alegre, RS 90540-020
Rua Barão de Teffé, 129;;Porto Alegre;RS;90160-150;Espaço Engenho e Arte;(51)3235-2357;Menino Deus;CENTRO;;ESPAÇO DE FORMAÇÃO CULTURAL;livro, leitura;-30,098386642101;-51,255979024761;Rua Barão de Teffe, 129 - Menino Deus, Porto Alegre - RS, 90160-150, República Federativa do Brasil
Rua Barão de Tramandaí, 569;;Porto Alegre;RS;91030-380;Emporion de Arte;(51)3248-9601;Passo Dareia;NOROESTE;;ESPAÇO CULTURAL;;-30,043313002401;-51,229804989755;Rua Barão de Tramandaí, 569 - Passo da Areia, Porto Alegre - RS, 91030-380, República Federativa do Brasil
Rua Bororó, 21;;Porto Alegre;RS;91900-540;Biblioteca Comunitária Bororó;;Vila Assuncao;SUL;;ESPAÇO DE FORMAÇÃO CULTURAL;livro, leitura,  teatro, fotografia, dança;-30,019393251604;-51,205479367623;Rua Bororó, 21 - Vila Assunção, Porto Alegre - RS, 91900-540, República Federativa do Brasil
Rua Câncio Gomes, 786;;Porto Alegre;RS;90220-060;Lígia Meurer ;(51)3222-4219;Floresta;CENTRO;http://www.bibliotecapublica.rs.gov.br/;ESPAÇO DE FORMAÇÃO CULTURAL;livro, leitura,;-30,036770939838;-51,171500132186;Rua Câncio Gomes, 786 - Floresta, Porto Alegre - RS, 90220-060, República Federativa do Brasil
Rua Carazinho, 330;;Porto Alegre;RS;90460-190;Vertente  Espaço de Arte;(51)3333-3372;Petropolis;CENTRO;;ESPAÇO CULTURAL;;-30,040183799832;-51,183804471781;Rua Carazinho, 330 Porto Alegre, RS 90460-190
Rua Carlos Huber, 425;;Porto Alegre;RS;91330-150;Memorial “Do Deustcher Hilfsrerein ao Colégio Farroupilha”;(51)3382-1875;Tres Figueiras;LESTE;;ESPAÇO CULTURAL;;-30,030198533823;-51,209382552101;Rua Carlos Huber, 425 - Três Figueiras, Porto Alegre - RS, 91330-150, República Federativa do Brasil
Rua Carlos Legori, 32;;Porto Alegre;RS;91340-150;Adágio Escola de Música;(51)3361-3750;Passo Dareia;NOROESTE;;ESPAÇO DE FORMAÇÃO CULTURAL;música;-30,020277311813;-51,169683428074;Rua Carlos Legori, 32 Porto Alegre, RS 91340-150
Rua Castro Alves, 101;;Porto Alegre;RS;90430-130;Galeria Marisa Soibelmann Espaço de Cultura e Arte;(51)3311-8390;Independencia;CENTRO;;ESPAÇO CULTURAL;;-30,034744335971;-51,235674445201;Rua Castro Alves, 101 - Independência, Porto Alegre - RS, 90430-130, República Federativa do Brasil
Rua Cel Paulino Teixeira, 35;;Porto Alegre;RS;90420-160;Galeria Tina Zapponi;(51)3332-3726;Rio Branco;CENTRO;http://www.brasilartegaleria.com.br/;ESPAÇO CULTURAL;fotografia, artes visuais;-30,034070208671;-51,203188428142;Rua Cel Paulino Teixeira, 35 Porto Alegre, RS 90420-160
Rua Cel. Fernando Machado, 195;;Porto Alegre;RS;90010-320;Jabutipê;(51)9196-4860;Centro Historico;CENTRO;http://www.jabutipe.com.br/;ESPAÇO CULTURAL;;-30,021829124244;-51,199720418737;Rua Coronel Fernando Machado, 195 - Centro, Porto Alegre - RS, 90010-320, República Federativa do Brasil
Rua Cel. Joaquim Pedro Salgado, 80;;Porto Alegre;RS;90420-060;Ipa Metodista;(51)3316-1100;Rio Branco;CENTRO;www.metodistadosul.com.br;ESPAÇO DE FORMAÇÃO CULTURAL;música;-30,034642208714;-51,198714703502;Rua Cel. Joaquim Pedro Salgado, 80 Porto Alegre, RS 90420-060
Rua Cel. Joaquim Pedro Salgado, 80;;Porto Alegre;RS;90420-060;Bibilioteca do Ipa Guilherme Mylius Central;(51)3316-1346;Rio Branco;CENTRO;http://www.metodistadosul.edu.br/bibliotecas/;ESPAÇO DE FORMAÇÃO CULTURAL;livro;-30,034640324205;-51,198719983323;Rua Cel. Joaquim Pedro Salgado, 80 Porto Alegre, RS 90420-060
Rua Comendador Caminha,  sn;;Porto Alegre;RS;90570-041;Biblioteca Ecológica Infantil Maria Dinorah;(51)3289-8311;Moinhos de Vento;CENTRO;http://www2.portoalegre.rs.gov.br/smam/default.php?p_secao=211;ESPAÇO DE FORMAÇÃO CULTURAL;livro, leitura;-30,000296779798;-51,20223552142;Porto Alegre - RS, 90570-041, República Federativa do Brasil
Rua Comendador Tavares, 360;;Porto Alegre;RS;90230-020;Museu Dr. José Faibes Lubianca / Polícia Civil;(51)3288-9312;Navegantes;HUMAITA/NAVEGANTES;www.pc.rs.gov.br/acadepol/museu.html;ESPAÇO CULTURAL;;-30,035083342204;-51,2265831328;Rua Comendador Tavares, 360 - Navegantes, Porto Alegre - RS, 90230-020, República Federativa do Brasil
Rua Coronel Bordini, 1665;;Porto Alegre;RS;90440-003;Galeria de Artes Edelweiss;(51)3029-6474;Rio Branco;CENTRO;;ESPAÇO CULTURAL;;-30,032876314863;-51,195913566359;Rua Coronel Bordini, 1665 Porto Alegre, RS 90440-003
Rua Coronel Bordini, 907;;Porto Alegre;RS;90440-003;Sala de Arte;(51)3330-4763;Moinhos de Vento;CENTRO;http://www.saladearte.com.br/;ESPAÇO CULTURAL;;-30,025958970673;-51,196435085825;Rua Coronel Bordini, 907 Porto Alegre, RS 90440-003
Rua Coronel Bordini, 907;;Porto Alegre;RS;90440-003;Galeria Belas Artes;(51)3388-2915;Moinhos de Vento;CENTRO;http://www.galeriabelasartes.com.br;ESPAÇO CULTURAL;;-30,025958822339;-51,196435015678;Rua Coronel Bordini, 907 Porto Alegre, RS 90440-003
Rua Coronel Bordini, 907;;Porto Alegre;RS;90440-004;Roberta Karam;(51)3388-6309;Moinhos de Vento;CENTRO;http://www.robertakaram.com.br/galeria.htm;ESPAÇO CULTURAL;;-30,02595850996;-51,19642839703;Rua Coronel Bordini, 907 Porto Alegre, RS 90440-004
Rua Coronel Bordini, 917;;Porto Alegre;RS;90440-003;Galeria Esculturas;(51)3388-6309;Moinhos de Vento;CENTRO;;ESPAÇO CULTURAL;;-30,026057493414;-51,196422694212;Rua Coronel Bordini, 917 Porto Alegre, RS 90440-003
Rua Coronel Bordini, 920;;Porto Alegre;RS;90440-001;Casa Arte Canoas;(51)3013-1529;Moinhos de Vento;CENTRO;http://www.casaartecanoas.com.br/web/principal.php;ESPAÇO CULTURAL;artes visuais;-30,026060838112;-51,196380236093;Rua Coronel Bordini, 920 Porto Alegre, RS 90440-001
Rua Coronel Corte Real, 647;;Porto Alegre;RS;90630-080;Gravura;(51)3333-1946;Petropolis;CENTRO;http://www.gravuragaleria.com.br;ESPAÇO CULTURAL;;-30,046220214491;-51,194745833992;Rua Coronel Corte Real, 647 Porto Alegre, RS 90630-080
Rua Coronel Corte Real, 687;301;Porto Alegre;RS;90630-080;Cezar Prestes Artte;(51)3330-3577;Petropolis;CENTRO;;ESPAÇO CULTURAL;;-30,045680179355;-51,194466429385;Rua Coronel Corte Real, 687 - Petrópolis, Porto Alegre - RS, 90630-080, República Federativa do Brasil
Rua Coronel Genuíno, 130;;Porto Alegre;RS;90010-350;Auditório Waldemar Fontes  FATECSenac RS;(51)3228-1044;Centro Historico;CENTRO;http://portal.senacrs.com.br/site/index.asp;ESPAÇO CULTURAL;;-30,035079724779;-51,226581514699;Rua Coronel Genuíno, 130 - Centro, Porto Alegre - RS, 90010-350, República Federativa do Brasil
Rua Coronel Genuíno, 130; 2º andar;Porto Alegre;RS;90010-350;Biblioteca FATEC Senac RS;(51)3022-9454;Centro Historico;CENTRO;http://portal.senacrs.com.br/site/pdf/FATEC_POA.pdf;ESPAÇO DE FORMAÇÃO CULTURAL;livro, leitura, ;-30,036875842117;-51,228060814886;Rua Coronel Genuíno, 130 Porto Alegre, RS 90010-350
Rua Coronel Genuíno, 358; 7º andar;Porto Alegre;RS;90010-350;Biblioteca Senac RS;(51)3212-4444;Centro Historico;CENTRO;http://portal.senacrs.com.br/site/pdf/FACAD.pdf;ESPAÇO DE FORMAÇÃO CULTURAL;livro, leitura, ;-30,027985951668;-51,220866762441;Rua Coronel Genuíno, 358 - Centro, Porto Alegre - RS, 90010-350, República Federativa do Brasil
Rua Coronel Vicente, 520; Ap 2;Porto Alegre;RS;90030-041;Associação Cívico Cultural Minuano ;(51)3224-4235;Centro Historico;CENTRO;;ESPAÇO DE FORMAÇÃO CULTURAL;;-30,026653225656;-51,219270011275;Rua Coronel Vicente, 520 - Centro, Porto Alegre - RS, 90030-041, República Federativa do Brasil
Rua da Conceição, 346;;Porto Alegre;RS;90030-030;Museu do Som;(51)3225-9077;Floresta;CENTRO;http://www.museudosom.com.br/;ESPAÇO CULTURAL;;-30,037270859465;-51,221681735181;Rua da Conceição, 346 - Floresta, Porto Alegre - RS, 90030-030, República Federativa do Brasil
Rua da República, 139;;Porto Alegre;RS;90050-320;Casa de Artes Baka;(51)3226-3052;Cidade Baixa;CENTRO;;ESPAÇO DE FORMAÇÃO CULTURAL;música;-30,027843567619;-51,205878652706;Rua da República, 139 - Cidade Baixa, Porto Alegre - RS, 90050-320, República Federativa do Brasil
Rua da República, 163;;Porto Alegre;RS;90050-320;Entreato Pub;(51)3019-3813;Cidade Baixa;CENTRO; http://www.entreato.com.br/ ;ESPAÇO CULTURAL;fotografia;-30,038783336304;-51,223804626547;Rua da República, 163 - Cidade Baixa, Porto Alegre - RS, 90050-320, República Federativa do Brasil
Rua da República, 409;;Porto Alegre;RS;90050-320;Pinacoteca Café;(51)9293-2506;Cidade Baixa;CENTRO;;ESPAÇO CULTURAL;;-30,039692844859;-51,225075153967;Rua da República, 409 - Cidade Baixa, Porto Alegre - RS, 90050-320, República Federativa do Brasil
Rua da República, 575;;Porto Alegre;RS;90050-320;Teatro de Câmara Túlio Piva ;(51)3289-8093;Cidade Baixa;CENTRO;http://www2.portoalegre.rs.gov.br/smc/default.php?reg=1&p_secao=19;ESPAÇO CULTURAL;;-30,039689777092;-51,22507504241;Rua da República, 575 - Cidade Baixa, Porto Alegre - RS, 90050-320, República Federativa do Brasil
Rua Demétrio Ribeiro, 1168; loja 04 ;Porto Alegre;RS;90010-311;WONDERLAND Museu de Plastimodelismo e Miniaturas;(51)3227-4580;Centro Historico;CENTRO;http://www.hobbycraft.com.br/HomePort/Wonderland/wonderland.htm;ESPAÇO CULTURAL;;-30,035973886297;-51,227746965478;Rua Demétrio Ribeiro, 1168 - Centro, Porto Alegre - RS, 90010-311, República Federativa do Brasil
Rua Dom Pedro II, 861;;Porto Alegre;RS;90550-142;Teatro CIEE;(51)3363-1111;Higienopolis;NOROESTE;www.teatrociee.org.br;ESPAÇO CULTURAL;;-30,030592149456;-51,231847222307;Rua Dom Pedro II, 861 - Higienópolis, Porto Alegre - RS, 90550-142, República Federativa do Brasil
Rua dos Andradas,  1051 a 1073;;Porto Alegre;RS;90020-007;Auditório da Caixa Econômica Federal;(51)3228-3100;Centro Historico;CENTRO;;ESPAÇO CULTURAL;;-30,029882172908;-51,229658838628;Rua dos Andradas, 1051 - Centro, Porto Alegre - RS, 90020-007, República Federativa do Brasil
Rua dos Andradas,  1051 a 1073 ; 12º Andar;Porto Alegre;RS;90010-300;Museu da Caixa Econômica Federal;(51)3228-9199;Centro Historico;CENTRO;;ESPAÇO CULTURAL;;-30,030528378556;-51,23167845767;Rua dos Andradas, 1051 - Centro, Porto Alegre - RS, 90020-007, República Federativa do Brasil
Rua dos Andradas, 1001; 3° piso;Porto Alegre;RS;90020-007;ArcoÍris Shopping Rua da Praia;(51)3286-7701;Centro Historico;CENTRO;http://www.arcoiriscinemas.com.br/;ESPAÇO DE FORMAÇÃO CULTURAL;;-30,030527196015;-51,23167890706;Rua dos Andradas, 1001 - Centro, Porto Alegre - RS, 90020-007, República Federativa do Brasil
Rua dos Andradas, 1223; 6º Andar;Porto Alegre;RS;90020-008;O Continente CEEE;(51)3228-9710;Centro Historico;CENTRO;www.cccev.com.br;ESPAÇO DE FORMAÇÃO CULTURAL;livro, leitura, ;-30,029883346724;-51,229655453111;Rua dos Andradas, 1223 - Centro, Porto Alegre - RS, 90020-008, República Federativa do Brasil
Rua dos Andradas, 1223; 3º Andar;Porto Alegre;RS;90010-300;MERGS Museu da Eletricidade do Rio Grande do Sul ;(51)3221-6872;Centro Historico;CENTRO;www.cccev.com.br;ESPAÇO CULTURAL;;-30,029884078945;-51,229657129148;Rua dos Andradas, 1223 - Centro, Porto Alegre - RS, 90020-008, República Federativa do Brasil
Rua dos Andradas, 1223; 4º Andar;Porto Alegre;RS;90020-008;Auditório Barbosa LessaCentro Cultural Érico Verissimo CEEE;(51)3221-6872;Centro Historico;CENTRO;www.cccev.com.br;ESPAÇO CULTURAL;;-30,029847450761;-51,229505822147;Rua dos Andradas, 1223 Porto Alegre, RS 90020-008
Rua dos Andradas, 1234; 10º andar;Porto Alegre;RS;90010-300;Museu Antropológico do Rio Grande do Sul MARS;(51)3228-9420;Centro Historico;CENTRO;www.mars.rs.gov.br ;ESPAÇO CULTURAL;;-30,02974021721;-51,227028180781;Rua dos Andradas, 1234 - Centro, Porto Alegre - RS, 90020-009, República Federativa do Brasil
Rua dos Andradas, 1270;;Porto Alegre;RS;90020-008;Associação nacional de História do RS;(51)3226-1735;Centro Historico;CENTRO;http://www.anpuh-rs.org.br/site/capa;ESPAÇO DE FORMAÇÃO CULTURAL;História;-30,02201263285;-51,199893668569;Rua dos Andradas, 1270 - Centro, Porto Alegre - RS, 90020-009, República Federativa do Brasil
Rua dos Andradas, 1444;29;Porto Alegre;RS;90020-011;Obra Aberta;(51)3228-1445;Centro Historico;CENTRO;;ESPAÇO CULTURAL;;-30,029732971064;-51,227026165215;Rua dos Andradas, 1444 - Centro, Porto Alegre - RS, 90020-011, República Federativa do Brasil
Rua dos Andradas, 1444;;Porto Alegre;RS;90020-011;Espaço 0 – Fundação Vera Chaves Barcellos;(51)3228-1445;Centro Historico;CENTRO;;ESPAÇO CULTURAL;;-30,029552981851;-51,223722394327;Rua dos Andradas, 1444 - Centro, Porto Alegre - RS, 90020-011, República Federativa do Brasil
Rua dos Andradas, 1780;;Porto Alegre;RS;90020-013;Cia de Arte  ;(51)3225-9189;Centro Historico;CENTRO;;ESPAÇO CULTURAL;;-30,029555146594;-51,223721940301;Rua dos Andradas, 1780 - Centro, Porto Alegre - RS, 90020-013, República Federativa do Brasil
Rua dos Andradas, 1780; 3° andar ;Porto Alegre;RS;90020-003;ONG Cirandar;(51)3225-7000;Centro Historico;CENTRO;;ESPAÇO DE FORMAÇÃO CULTURAL;livro, leitura,;-30,033165262609;-51,239345050637;Rua dos Andradas, 1780 - Centro, Porto Alegre - RS, 90020-013, República Federativa do Brasil
Rua dos Andradas, 230;;Porto Alegre;RS;90020-000;Museu do Trabalho;(51)3227-5196;Centro Historico;CENTRO;www.museudotrabalho.org;ESPAÇO CULTURAL;;-30,033168702151;-51,239343813576;Rua dos Andradas, 230 - Centro, Porto Alegre - RS, 90020-000, República Federativa do Brasil
Rua dos Andradas, 230;;Porto Alegre;RS;90020-000;Teatro Museu do Trabalho;(51)3227-5196;Centro Historico;CENTRO;http://www.museudotrabalho.org/;ESPAÇO CULTURAL;;-30,031726121661;-51,235148416559;Rua dos Andradas, 230 Porto Alegre, RS 90020-000
Rua dos Andradas, 498;;Porto Alegre;RS;90010-300;Museu da Brigada Militar Museu Hélio Moro Mariante ;(51)3288-2940;Centro Historico;CENTRO;http://www.brigadamilitar.rs.gov.br/museubm;ESPAÇO CULTURAL;;-30,032113078477;-51,236443205138;Rua dos Andradas, 498 - Centro, Porto Alegre - RS, 90020-001, República Federativa do Brasil
Rua dos Andradas, 630;;Porto Alegre;RS;90020-001;Museu do Comando Militar do SulExército Brasileiro ;(51)3220-6366;Centro Historico;CENTRO;www.museumilitar.com.br;ESPAÇO CULTURAL;;-30,031397226776;-51,234336074506;Rua dos Andradas, 630 - Centro, Porto Alegre - RS, 90020-001, República Federativa do Brasil
Rua dos Andradas, 680; 4º andar;Porto Alegre;RS;90020-003;SMED Secretaria Municipal de Educação;(51)3289-1781;Centro Historico;CENTRO;;ESPAÇO DE FORMAÇÃO CULTURAL;livro;-30,031628636269;-51,234910558256;Rua dos Andradas, 680 - Centro, Porto Alegre - RS, 90020-003, República Federativa do Brasil
Rua dos Andradas, 736;;Porto Alegre;RS;90020-003;Teatro Bruno Kiefer;(51)3221-7147;Centro Historico;CENTRO;www.ccmq.rs.gov.br;ESPAÇO CULTURAL;;-30,031375384067;-51,234317711266;Rua dos Andradas, 736 Porto Alegre, RS 90020-003
Rua dos Andradas, 736; CCMQ;Porto Alegre;RS;90020-003;Instituto Estadual de Cinema (IECINE);(51)3286-1900;Centro Historico;CENTRO;;ESPAÇO DE FORMAÇÃO CULTURAL;cinema;-30,031377073557;-51,234324584062;Rua dos Andradas, 736 Porto Alegre, RS 90020-003
Rua dos Andradas, 736; CCMQ;Porto Alegre;RS;90035-150;Instituto Estadual de Música (IEM);(51)3226-9433;Centro Historico;CENTRO;;ESPAÇO DE FORMAÇÃO CULTURAL;música;-30,031394320165;-51,234336203048;Rua dos Andradas, 736 - Centro, Porto Alegre - RS, 90020-003, República Federativa do Brasil
Rua dos Andradas, 736; 2º andar;Porto Alegre;RS;90020-003;Insituto Estadual de Artes Cênicas (IACEN);(51)3221-2253;Centro Historico;CENTRO;;ESPAÇO DE FORMAÇÃO CULTURAL;artes cênicas;-30,031379102069;-51,234317657313;Rua dos Andradas, 736 Porto Alegre, RS 90020-003
Rua dos Andradas, 736; CCMQ;Porto Alegre;RS;90020-003;Instituto Estadual de Artes Cênicas (IEAV);(51)3216-9913;Centro Historico;CENTRO;;ESPAÇO DE FORMAÇÃO CULTURAL;artes visuais;-30,031373645921;-51,234319750582;Rua dos Andradas, 736 Porto Alegre, RS 90020-003
Rua dos Andradas, 736;;Porto Alegre;RS;90020-003;Acervo Mário Quintana;(51)3221-7109;Centro Historico;CENTRO;http://www.ccmq.com.br/espaco-mezanino.php?PHPSESSID=558a21ae83eb3709a08a57310703b439;ESPAÇO CULTURAL;;-30,031397919203;-51,234333991763;Rua dos Andradas, 736 - Centro, Porto Alegre - RS, 90020-003, República Federativa do Brasil
Rua dos Andradas, 736;;Porto Alegre;RS;90020-003;Teatro Carlos Carvalho;(51)3221-7147;Centro Historico;CENTRO;http://www.ccmq.rs.gov.br/novo/principal/ccarvalho.htm;ESPAÇO CULTURAL;;-30,031399558066;-51,234334850171;Rua dos Andradas, 736 Porto Alegre, RS 90020-003
Rua dos Andradas, 736;;Porto Alegre;RS;90020-003;Cinemateca Paulo Amorin;(51)3226-5787;Centro Historico;CENTRO;http://www.ccmq.com.br/;ESPAÇO CULTURAL;;-30,031399553545;-51,234335624573;Rua dos Andradas, 736 Porto Alegre, RS 90020-003
Rua dos Andradas, 736;;Porto Alegre;RS;90570-041;Biblioteca Pública do Estado;(51)3224-5045;Moinhos de Vento;CENTRO;http://www.bibliotecapublica.rs.gov.br/;ESPAÇO DE FORMAÇÃO CULTURAL;livro, leitura, arquivo;-30,031401401275;-51,234334582685;Rua dos Andradas, 736 - Centro, Porto Alegre - RS, 90020-003, República Federativa do Brasil
Rua dos Andradas, 736;;Porto Alegre;RS;90010-460;Erico Verissimo;(51)3228-8378;Centro Historico;CENTRO;www.ccmq.rs.gov.br;ESPAÇO DE FORMAÇÃO CULTURAL;livro, leitura;-30,031397633911;-51,234334918155;Rua dos Andradas, 736 - Centro, Porto Alegre - RS, 90020-003, República Federativa do Brasil
Rua dos Andradas, 736;;Porto Alegre;RS;90020-003;Galeria Augusto Meyer;(51)3221-7147;Centro Historico;CENTRO;;ESPAÇO CULTURAL;;-30,031399662694;-51,23433423421;Rua dos Andradas, 736 Porto Alegre, RS 90020-003
Rua dos Andradas, 736;;Porto Alegre;RS;90010-300;Museu Banrisul;(51)3226-1611;Centro Historico;CENTRO;www.banrisul.com.br;ESPAÇO CULTURAL;;-30,031399857917;-51,234337988774;Rua dos Andradas, 736 - Centro, Porto Alegre - RS, 90020-003, República Federativa do Brasil
Rua dos Andradas, 736;2º e 6º andar  Casa de Cultura Mario Quintana;Porto Alegre;RS;90035-190;Museu de Arte Contemporânea do Rio Grande do Sul Mac (Casa de Cultura Mário Quintana);(51)3221-5900;Centro Historico;CENTRO;não possui;ESPAÇO CULTURAL;;-30,031398559613;-51,234333769839;Rua dos Andradas, 736 - Centro, Porto Alegre - RS, 90020-003, República Federativa do Brasil
Rua dos Andradas, 736;  6° Andar;Porto Alegre;RS;90020-003;Auditório Luis Cosme;(51)3221-7147;Centro Historico;CENTRO;http://www.ccmq.com.br/;ESPAÇO CULTURAL;;-30,03140098636;-51,234337148012;Rua dos Andradas, 736 Porto Alegre, RS 90020-003
Rua dos Andradas, 736; 5º andar;Porto Alegre;RS;90020-003;Lucília Minssen;(51)3225-7089;Centro Historico;CENTRO;www.ccmq.rs.gov.br ;ESPAÇO DE FORMAÇÃO CULTURAL;livro, leitura, música;-30,031399838899;-51,234335740519;Rua dos Andradas, 736 Porto Alegre, RS 90020-003
Rua dos Andradas, 736; 6° Andar;Porto Alegre;RS;90020-003;Galeria Xico Stockinger;(51)3221-7147;Centro Historico;CENTRO;www.ccmq.com.br;ESPAÇO CULTURAL;;-30,030596002417;-51,231864196451;Rua dos Andradas, 736 Porto Alegre, RS 90020-003
Rua dos Andradas, 959;;Porto Alegre;RS;90020-006;Museu de Comunicação Social Hipólito José da Costa;(51)3224-4252;Centro Historico;CENTRO;http://www.museudacomunicacao.rs.gov.br/site/;ESPAÇO CULTURAL;;-30,044796096091;-51,209438107076;Rua dos Andradas, 959 - Centro, Porto Alegre - RS, 90020-006, República Federativa do Brasil
Rua Doutor Armando Barbedo, 1091;;Porto Alegre;RS;91920-520;Contextura;(51)3222-7756;Tristeza;SUL;http://www.contextura.art.br/;ESPAÇO CULTURAL;;-30,109407843589;-51,24775281885;Rua Doutor Armando Barbedo, 1091 Porto Alegre, RS 91920-520
Rua Doutor Olinto de Oliveira, 68;;Porto Alegre;RS;90040-250;Studio Stravaganza;(51)3211-0499;Santana;CENTRO;http://www.ciastravaganza.com.br/;ESPAÇO CULTURAL;;-30,140850623265;-51,211491785662;Rua Doutor Olinto de Oliveira, 68 - Santana, Porto Alegre - RS, 90040-250, República Federativa do Brasil
Rua Doutor Pitrez,  sn;;Porto Alegre;RS;91751-530;Jane Klein Escritório de Arte;(51)9982-9190;;;http://www.janeklein.com.br/;ESPAÇO CULTURAL;;-30,002466548372;-51,196450296642;Porto Alegre - RS, 91751-530, República Federativa do Brasil
Rua Doutor Salvador França, 201;;Porto Alegre;RS;90690-000;Fundação Parque Histórico Marechal Manoel Luís Osório;(51)3336-4530;Jardim Botanico;CENTRO;;ESPAÇO CULTURAL;;-30,035929483363;-51,20488346549;Rua Doutor Salvador França, 201 - Jardim Botânico, Porto Alegre - RS, 90690-000, República Federativa do Brasil
Rua Doutor Timóteo, 752;;Porto Alegre;RS;90570-041;Biblioteca da Aliança Francesa;(51)3222-6070;Moinhos de Vento;CENTRO;http://www.afpoa.com.br/;ESPAÇO DE FORMAÇÃO CULTURAL;livro, leitura, audiovisual;-30,033302717135;-51,21878255201;Rua Doutor Timóteo, 752 - Moinhos de Vento, Porto Alegre - RS, 90570-041, República Federativa do Brasil
Rua Dr João Inácio, 981;;Porto Alegre;RS;90230-181;Terreira da Tribo;(51)3028-1358;Navegantes;HUMAITA/NAVEGANTES;http://www.oinoisaquitraveiz.com.br/;ESPAÇO CULTURAL;;-30,035797627464;-51,201247423956;Rua Doutor João Inácio, 981 - Navegantes, Porto Alegre - RS, 90230-181, República Federativa do Brasil
Rua Dr. Campos Velho, 1299; sala 201;Porto Alegre;RS;90820-000;Nova Acrópole;(51)3022-4433;Nonoai;CENTRO-SUL;http://www.nova-acropole.org.br/;ESPAÇO DE FORMAÇÃO CULTURAL;Filosofia;-30,093863286594;-51,229440406305;Rua Doutor Campos Velho, 1299 - Nonoai, Porto Alegre - RS, 90820-000, República Federativa do Brasil
Rua Dr. João Simplício Alves de Carvalho, 38;;Porto Alegre;RS;91360-260;Recitatus Centro de Artes ;(51)3347-7840;Vila Ipiranga;NOROESTE;www.recitatus.com.br;ESPAÇO DE FORMAÇÃO CULTURAL;música;-30,019381786071;-51,152069829425;Rua Dr. João Simplício Alves de Carvalho, 38 Porto Alegre, RS 91360-260
Rua Dr. Lauro de Oliveira, 71;;Porto Alegre;RS;90420-210;Biblioteca do Americano  Mary Tweedy Biblioteca de Séries Iniciais e Infantil;(51)3316-1129;Rio Branco;CENTRO;;ESPAÇO DE FORMAÇÃO CULTURAL;livro;-30,035783324522;-51,201230661022;Rua Dr. Lauro de Oliveira, 71 Porto Alegre, RS 90420-210
Rua Dr. Lauro de Oliveira, 71;;Porto Alegre;RS;90420-210;Museu Histórico Bispo Isac Aço / Museu do IPA;(51)3316-1198;Rio Branco;CENTRO;em reforma;ESPAÇO CULTURAL;;-30,035799238175;-51,201244022618;Rua Doutor Lauro de Oliveira, 71 - Rio Branco, Porto Alegre - RS, 90420-210, República Federativa do Brasil
Rua Dr. Lauro de Oliveira, 71;;Porto Alegre;RS;90420-210;Sala de Biociências do Colégio Americano;(51)3331-7720;Rio Branco;CENTRO;www.ipa-imec.br;ESPAÇO CULTURAL;;-30,033352666748;-51,229706329436;Rua Dr. Lauro de Oliveira, 71 Porto Alegre, RS 90420-210
Rua Duque de Caxias, 1029;;Porto Alegre;RS;90010-280;Memorial do Legislativo do RS;(51)3210-1675;Centro Historico;CENTRO;http://www2.al.rs.gov.br/memorial/;ESPAÇO CULTURAL;;-30,033373324805;-51,229473500081;Rua Duque de Caxias, 1029 - Centro, Porto Alegre - RS, 90010-280, República Federativa do Brasil
Rua Duque de Caxias, 1205;;Porto Alegre;RS;90010-281;Museu Júlio de Castilhos;(51)3221-3959;Centro Historico;CENTRO;http://www.museujuliodecastilhos.rs.gov.br/;ESPAÇO CULTURAL;;-30,033370032752;-51,229474704202;Rua Duque de Caxias, 1205 - Centro, Porto Alegre - RS, 90010-281, República Federativa do Brasil
Rua Duque de Caxias, 1205;;Porto Alegre;RS;90010-281;Teatro do Museu Julio de castilhos;(51)3221-3959;Centro Historico;CENTRO;http://www.museujuliodecastilhos.rs.gov.br/;ESPAÇO CULTURAL;;-30,033193858261;-51,231515163995;Rua Duque de Caxias, 1205 Porto Alegre, RS 90010-281
Rua Duque de Caxias, 1597;;Porto Alegre;RS;90010-281;Conservatório Palestrina;(51)3227-2398;Centro Historico;CENTRO;;ESPAÇO DE FORMAÇÃO CULTURAL;música;-30,032946744032;-51,225558860205;Rua Duque de Caxias, 1597 Porto Alegre, RS 90010-281
Rua Duque de Caxias, 350;;Porto Alegre;RS;90010-282;Centro de Memoria da Justiça Eleitoral do RS;(51)3216-9540;Centro Historico;CENTRO;;ESPAÇO CULTURAL;;-30,034634147747;-51,237960566897;Rua Duque de Caxias, 350 Porto Alegre, RS 90010-282
Rua Duque de Caxias, 968; Solar dos Câmara;Porto Alegre;RS;90010-282;Centro de Documentação Histórica e Política do RSBiblioteca Borges de MedeirosSolar dos Câmara;(51)3210-2000;Centro Historico;CENTRO;http://www2.al.rs.gov.br/biblioteca/;ESPAÇO DE FORMAÇÃO CULTURAL;arquivo;-30,033211494226;-51,231619104443;Rua Duque de Caxias, 968 - Centro, Porto Alegre - RS, 90010-282, República Federativa do Brasil
Rua Duque de Caxias, 973;;Porto Alegre;RS;90020-020;Pinacoteca Rubem Berta;(51)3289-3735;Centro Historico;CENTRO;http://www2.portoalegre.rs.gov.br/smc/default.php?reg=1&p_secao=154;ESPAÇO CULTURAL;;-30,034010531783;-51,220647260609;Rua Duque de Caxias, 973 - Centro, Porto Alegre - RS, 90010-280, República Federativa do Brasil
Rua Engenheiro Luiz Englert,  s/n; Prédio 12204;Porto Alegre;RS;90040-040;Cinema Universitário Sala Redenção;(51)3308-3933;Centro Historico;CENTRO;http://www.difusaocultural.ufrgs.br/;ESPAÇO DE FORMAÇÃO CULTURAL;;-29,993483555491;-51,201298779993;Central, Porto Alegre - RS, 90040-040, República Federativa do Brasil
Rua Farias Santos, 234;;Porto Alegre;RS;90670-150;Projeto Prelúdio;(51)3333-6611;Petropolis;CENTRO;;ESPAÇO DE FORMAÇÃO CULTURAL;;-30,044521244368;-51,190516240227;Rua Farias Santos, 234 Porto Alegre, RS 90670-150
Rua Felizardo, 750;;Porto Alegre;RS;90690-200;Biblioteca UFRGS EDUCAÇÃO FÍSICA (ESEF);(51)3308-5813;Jardim Botanico;CENTRO;http://www.esef.ufrgs.br/biblioteca.htm;ESPAÇO DE FORMAÇÃO CULTURAL;livro, leitura;-30,051785604443;-51,181200795104;Rua Felizardo, 750 Porto Alegre, RS 90690-200
Rua Frederico Mentz, 1561;;Porto Alegre;RS;90240-110;Espaço de Artes Zoravia Bettiol;(51)3374-7626;Navegantes;HUMAITA/NAVEGANTES;;ESPAÇO CULTURAL;;-29,993456732336;-51,201276195714;Rua Frederico Mentz, 1561 Porto Alegre, RS 90240-110
Rua Frederico Mentz, 1561;;Porto Alegre;RS;90240-110;Teatro Novo DC;(51)3374-7626;Navegantes;HUMAITA/NAVEGANTES; www.teatronovo.com.br;ESPAÇO CULTURAL;;-29,99345999822;-51,201273702441;Rua Frederico Mentz, 1561 Porto Alegre, RS 90240-110
Rua Frederico Mentz, 1561;;Porto Alegre;RS;90240-110;Teatro do Casarão Verde;(51)3343-5336;Navegantes;HUMAITA/NAVEGANTES;http://www.cuidadoquemancha.com.br/;ESPAÇO CULTURAL;;-30,030365747633;-51,215097205222;Rua Frederico Mentz, 1561 - Navegantes, Porto Alegre - RS, 90240-110, República Federativa do Brasil
Rua Frederico Mentz, 1561; Shopping DC loja 150 ;Porto Alegre;RS;90240-111;Galeria Avalon;(51)3062-1100;Navegantes;HUMAITA/NAVEGANTES;http://www.galeriaavalon.com.br;ESPAÇO CULTURAL;artes visuais;-30,008557674038;-51,169739318679;Rua Frederico Mentz, 1561 - Navegantes, Porto Alegre - RS, 90240-111, República Federativa do Brasil
Rua Frederico Mentz, 1606;;Porto Alegre;RS;90240-110;Biblioteca do IPA Biblioteca da Unidade DC Shopping ;(51)3362-5604;Navegantes;HUMAITA/NAVEGANTES;http://www.metodistadosul.edu.br/bibliotecas/;ESPAÇO DE FORMAÇÃO CULTURAL;livro;-29,993758451395;-51,201357257537;Rua Frederico Mentz, 1606 Porto Alegre, RS 90240-110
Rua Garibaldi, 1042;;Porto Alegre;RS;90035-052;Cordas & Cordas Escola de Música;(51)3311-4147;Independencia;CENTRO;;ESPAÇO DE FORMAÇÃO CULTURAL;música;-30,029858547323;-51,214989071586;Rua Garibaldi, 1042 Porto Alegre, RS 90035-052
Rua Garibaldi, 1102;;Porto Alegre;RS;90035-052;Teatro de Bolso Ilona Christensen ;(51)3311-8055;Independencia;CENTRO;;ESPAÇO CULTURAL;;-30,028313492662;-51,215178034193;Rua Garibaldi, 1102 - Independência, Porto Alegre - RS, 90035-052, República Federativa do Brasil
Rua Garibaldi, 1329;;Porto Alegre;RS;90035-052;Galeria Zouk;(51)3024-7554;Bom Fim;CENTRO;http://www.editorazouk.com.br/;ESPAÇO CULTURAL;;-30,03315390083;-51,215329310782;Rua Garibaldi, 1329 Porto Alegre, RS 90035-052
Rua Garibaldi, 853;;Porto Alegre;RS;90035-051;Casa de Teatro;(51)3029-9292;Independencia;CENTRO;http://www.casadeteatropoa.com.br/;ESPAÇO CULTURAL;;-30,033087359824;-51,235726306452;Rua Garibaldi, 853 - Independência, Porto Alegre - RS, 90035-051, República Federativa do Brasil
Rua Gen Lima E Silva, 776;;Porto Alegre;RS;90050-101;Guion;(51)3221-3122;Cidade Baixa;CENTRO;http://www.guion.com.br/;ESPAÇO DE FORMAÇÃO CULTURAL;;-30,039271016857;-51,22009851438;Rua Gen Lima E Silva, 776 Porto Alegre, RS 90050-101
Rua General Andrade Neves, 100;;Porto Alegre;RS;90010-210;Curso Para Djs Mixdj;(51)3228-7975;Centro Historico;CENTRO;http://mixdj.com.br;ESPAÇO DE FORMAÇÃO CULTURAL;música;-30,030790421367;-51,228465689824;Rua General Andrade Neves, 100 - Centro, Porto Alegre - RS, 90010-210, República Federativa do Brasil
Rua General Câmara, 424;;Porto Alegre;RS;90010-230;CineBancários;(51)3433-1200;Centro Historico;CENTRO;http://www.sindbancarios.org.br;ESPAÇO DE FORMAÇÃO CULTURAL;;-30,031865940101;-51,230099128329;Rua General Câmara, 424 Porto Alegre, RS 90010-230
Rua General Canabarro, 363;;Porto Alegre;RS;90010-160;IAB Solar Cultural Conde do Porto;(51)3212-2552;Centro Historico;CENTRO;http://www.iab-rs.org.br/temp-arq-dest01.php?PHPSESSID=f392132490b3b47c955d50bb797b8025;ESPAÇO CULTURAL;;-30,032777801104;-51,212571641996;Rua General Canabarro, 363 - Centro, Porto Alegre - RS, 90010-160, República Federativa do Brasil
Rua General Couto de Magalhães, 431;;Porto Alegre;RS;90540-130;Saron Galeria de Artes;(51)3337-1285;Sao Joao;NOROESTE;;ESPAÇO CULTURAL;;-30,016835148963;-51,196858252371;Rua General Couto de Magalhães, 431 Porto Alegre, RS 90540-130
Rua General João Manoel, 207; Ap 73;Porto Alegre;RS;90010-030;Exposta Photografica;(51)3226-9523;Centro Historico;CENTRO;;ESPAÇO CULTURAL;;-30,030770012634;-51,233485270913;Rua General João Manoel, 207 - Centro, Porto Alegre - RS, 90010-030, República Federativa do Brasil
Rua General João Telles, 329; 4º andar;Porto Alegre;RS;90035-120;Associação Beneficente Cultural Bene Berith Jehuda Halevi;(51)3254-0027;Bom Fim;CENTRO;;ESPAÇO DE FORMAÇÃO CULTURAL;;-30,03236009362;-51,212482033846;Rua General João Telles, 329 - Bomfim, Porto Alegre - RS, 90035-120, República Federativa do Brasil
Rua General João Telles, 369; 2º andar;Porto Alegre;RS;90035-120;Memorial da Justiça do Trabalho;(51)3222-9580;Bom Fim;CENTRO;www.trt4.jus.br;ESPAÇO CULTURAL;;-30,032882472259;-51,212589211238;Rua General João Telles, 369 - Bomfim, Porto Alegre - RS, 90035-120, República Federativa do Brasil
Rua General João Telles, 379; sala 102;Porto Alegre;RS;90035-120;Arena Associação de Arte e Cultura;;Bom Fim;CENTRO;http://www.arena.org.br;ESPAÇO DE FORMAÇÃO CULTURAL;Arte e Cultura;-30,033930554461;-51,21270329633;Rua General João Telles, 379 - Bomfim, Porto Alegre - RS, 90035-120, República Federativa do Brasil
Rua General João Telles, 508;;Porto Alegre;RS;90035-121;Teatro HebraicaAssociação Israelita;(51)3311-3755;Bom Fim;CENTRO;http://www.hebraicars.com.br;ESPAÇO CULTURAL;;-30,03626064856;-51,237656916937;Rua General João Telles, 508 - Bomfim, Porto Alegre - RS, 90035-121, República Federativa do Brasil
Rua General Lima e Silva, 4;;Porto Alegre;RS;90050-101;Azul Galeria Produtora;(51)8154-8037;Centro Historico;CENTRO;http://www.azulgaleria.com.br/;ESPAÇO CULTURAL;artes visuais;-30,038794609873;-51,220982503004;Rua General Lima E Silva, 4 - Centro, Porto Alegre - RS, 90050-101, República Federativa do Brasil
Rua General Lima e Silva, 661;;Porto Alegre;RS;90050-100;Emoldurarte;;Cidade Baixa;CENTRO;http://www.emoldurarte.com/;ESPAÇO CULTURAL;;-30,039269489679;-51,220096116794;Rua General Lima e Silva, 661 Porto Alegre, RS 90050-100
Rua General Lima e Silva, 776; Loja 11;Porto Alegre;RS;90050-101;Guion Arte;(51)3221-3122;Cidade Baixa;CENTRO;http://www.guion.com.br/arte e www.guion.com.br;ESPAÇO CULTURAL;;-30,043524464626;-51,216455742719;Rua General Lima E Silva, 776 - Cidade Baixa, Porto Alegre - RS, 90050-101, República Federativa do Brasil
Rua General Vasco Alves,  sn;;Porto Alegre;RS;90010-410;Castelo do Alto da Bronze;(51)3779-9896;Centro Historico;CENTRO;http://castelinhodoaltodabronze.blogspot.com/;ESPAÇO CULTURAL;;-30,047551608797;-51,206390533334;Porto Alegre - RS, 90010-410, República Federativa do Brasil
Rua Gomes Jardim, 497;;Porto Alegre;RS;90620-130;Cultura Japonesa de Porto Alegre;(51)3219-2664;Santana;CENTRO;http://www.acj-poa.com.br/;ESPAÇO DE FORMAÇÃO CULTURAL;Cultura nipônica;-30,058575706378;-51,227978179871;Rua Gomes Jardim, 497 - Santana, Porto Alegre - RS, 90620-130, República Federativa do Brasil
Rua Gonçalo de Carvalho, 22;;Porto Alegre;RS;90035-170;Casa da Música;(51)9968-0572;Independencia;CENTRO;;ESPAÇO DE FORMAÇÃO CULTURAL;música;-30,026831168852;-51,209560271087;Rua Gonçalo de Carvalho, 22 Porto Alegre, RS 90035-170
Rua Grão Pará, 179;;Porto Alegre;RS;90850-170;Teatro Nilton Filho;(51)3028-3663;Menino Deus;CENTRO;;ESPAÇO CULTURAL;;-29,9858135048;-51,198268428858;Rua Grão Pará, 179 - Menino Deus, Porto Alegre - RS, 90850-170, República Federativa do Brasil
Rua Hilário Ribeiro, 298;;Porto Alegre;RS;90510-040;Galeria Mallmann Arte Contemporânea;(51)3346-6035;Moinhos de Vento;CENTRO;;ESPAÇO CULTURAL;;-30,025574936404;-51,204013850016;Rua Hilário Ribeiro, 298 Porto Alegre, RS 90510-040
Rua Jaime Topolar, 530;;Porto Alegre;RS;90245-300;Biblioteca Comunitária Fé e Alegria;(51)3362-7991;Farrapos;HUMAITA/NAVEGANTES;;ESPAÇO DE FORMAÇÃO CULTURAL;livro, leitura,  teatro, fotografia, dança;-30,042536973292;-51,22449343728;Rua Jayme Tolpolar, 530 - Farrapos, Porto Alegre - RS, 90245-300, República Federativa do Brasil
Rua João Abbott, 263;;Porto Alegre;RS;90460-150;Espaço de Criação Musical;(51)3332-7224;Petropolis;CENTRO;;ESPAÇO DE FORMAÇÃO CULTURAL;;-30,042035061448;-51,187053077846;Rua João Abbott, 263 Porto Alegre, RS 90460-150
Rua João Alfredo, 582;;Porto Alegre;RS;90050-230;Museu de Porto Alegre Joaquim Felizardo Solar Lopo Gonçalves;(51)3289-8096;Cidade Baixa;CENTRO;http://www2.portoalegre.rs.gov.br/smc/default.php?reg=4&p_secao=19;ESPAÇO CULTURAL;;-30,042536102389;-51,224494359577;Rua João Alfredo, 582 - Cidade Baixa, Porto Alegre - RS, 90050-230, República Federativa do Brasil
Rua João Caetano, 285;;Porto Alegre;RS;90470-260;Biblioteca do Instituto Cervantes;(51)3330-9452;Tres Figueiras;LESTE;http://portoalegre.cervantes.es/br/biblioteca_portugues/biblioteca_portugues.htm;ESPAÇO DE FORMAÇÃO CULTURAL;livro, música, audiovisual;-30,032362882149;-51,212489167439;Rua João Caetano, 285 - Três Figueiras, Porto Alegre - RS, 90470-260, República Federativa do Brasil
Rua João Telles, 329; 2º andar;Porto Alegre;RS;90035-120;Museu Judaico de Porto Alegre;(51)3311-0379;Bom Fim;CENTRO;;ESPAÇO CULTURAL;;-30,034009877895;-51,220648226042;Rua General João Telles, 329 - Bomfim, Porto Alegre - RS, 90035-120, República Federativa do Brasil
Rua Landel de Moura, 678;;Porto Alegre;RS;91920-150;Atelier e Galeria Aloízio Pedersen;(51)3268-8709;Tristeza;SUL;;ESPAÇO CULTURAL;;-30,115498940714;-51,253346160051;Rua Landel de Moura, 678 Porto Alegre, RS 91920-150
Rua Luciana Abreu, 450;;Porto Alegre;RS;90570-060;Garagem de Arte Ita Stockinger;(51)3346-5020;Moinhos de Vento;CENTRO;;ESPAÇO CULTURAL;;-30,045146637236;-51,224727404673;Rua Luciana Abreu, 450 Porto Alegre, RS 90570-060
Rua Luiz Englert,  sn;;Porto Alegre;RS;90040-040;Sala Qorpo Santo        ;(51)3308-3080;Farroupilha;CENTRO;http://www.difusaocultural.ufrgs.br;ESPAÇO CULTURAL;;-30,02127789672;-51,20001318538;Central, Porto Alegre - RS, 90040-040, República Federativa do Brasil
Rua Marquês do Herval, 280;;Porto Alegre;RS;90570-140;Salão Leopoldina;(51)3323-4311;Moinhos de Vento;CENTRO;http://www.juvenil.com.br/site/locacao_de_saloes_salao_leopoldina.php;ESPAÇO CULTURAL;;-30,155389270084;-51,224274695617;Rua Marquês do Herval, 280 - Moinhos de Vento, Porto Alegre - RS, 90570-140, República Federativa do Brasil
Rua Marquês do Pombal, 1111;;Porto Alegre;RS;90540-000;Filmoteca do Instituto NT;(51)3361-3111;Auxiliadora;CENTRO;;ESPAÇO CULTURAL;;-30,019204632157;-51,19267007716;Rua Marquês do Pombal, 1111 Porto Alegre, RS 90540-000
Rua Marquês do Pombal, 1111;;Porto Alegre;RS;90540-000;Espaço de Exposições do Instituto NT;(51)3361-3111;Auxiliadora;CENTRO;;ESPAÇO CULTURAL;fotografia;-30,019202556441;-51,192668097103;Rua Marquês do Pombal, 1111 Porto Alegre, RS 90540-000
Rua Marquês do Pombal, 1111;;Porto Alegre;RS;90540-000;Biblioteca do CinemaInstituto NT;(51)3361-3111;Auxiliadora;CENTRO;;ESPAÇO DE FORMAÇÃO CULTURAL;livro, audiovisual;-30,019204558802;-51,192667069617;Rua Marquês do Pombal, 1111 Porto Alegre, RS 90540-000
Rua Marquês do Pombal, 1111;;Porto Alegre;RS;90540-000;Sala NT Instituto NT de Cinema e Cultura;(51)3361-3111;Auxiliadora;CENTRO;;ESPAÇO DE FORMAÇÃO CULTURAL;;-30,032299408795;-51,229803630187;Rua Marquês do Pombal, 1111 Porto Alegre, RS 90540-000
Rua Mostardeiro, 157;;Porto Alegre;RS;90430-000;Morandi Arte E Arte;(51)3346-1732;Moinhos de Vento;CENTRO;;ESPAÇO CULTURAL;;-30,057122872003;-51,225289815814;Rua Mostardeiro, 157 Porto Alegre, RS 90430-000
Rua Mucio Teixeira, 1476;;Porto Alegre;RS;90150-090;Piano & Cia Escola de Música;(51)3231-6194;Menino Deus;CENTRO;;ESPAÇO DE FORMAÇÃO CULTURAL;música;-30,032923622315;-51,216991416637;Rua Mucio Teixeira, 1476 Porto Alegre, RS 90150-090
Rua Oiampi, 304;;Porto Alegre;RS;91770-580;Antônio Soriano;(51)3248-4679;Guaruja;SUL;http://sorianopainter.com/;ESPAÇO CULTURAL;artes visuaus;-30,024279072737;-51,201104793421;Rua Oiampi, 304 - Guarujá, Porto Alegre - RS, 91770-580, República Federativa do Brasil
Rua Olavo Barreto Viana, 36; 4º Andar;Porto Alegre;RS;90570-070;GNC Cinemas Moinhos Shopping;(51)3395-5629;Moinhos de Vento;CENTRO;http://www.gnccinemas.com.br;ESPAÇO DE FORMAÇÃO CULTURAL;;-30,024271485881;-51,201100594602;Rua Olavo Barreto Viana, 36 - Moinhos de Vento, Porto Alegre - RS, 90570-070, República Federativa do Brasil
Rua Olavo Barreto Viana, 36; 3º Andar;Porto Alegre;RS;90570-070;Galeria de Arte da Loja Massom;(51)3391-4760;Moinhos de Vento;CENTRO;http://www.masson.com.br/;ESPAÇO CULTURAL;;-30,039573066768;-51,239133542331;Rua Olavo Barreto Viana, 36 - Moinhos de Vento, Porto Alegre - RS, 90570-070, República Federativa do Brasil
Rua Otávio Caruso da Rocha, 301;;Porto Alegre;RS;90010-395;Centro Municipal de Eventos Almir Azeredo Ramos (Casa do Gaúcho);(51)3212-3334;Praia de Belas;CENTRO;http://www.centroeventoscasadogaucho.com.br/;ESPAÇO CULTURAL;;-30,017287914324;-51,165597117462;Rua Otávio Francisco Caruso da Rocha, 301 - Praia de Belas, Porto Alegre - RS, 90010-395, República Federativa do Brasil
Rua Padre Chagas, 147; sala 804;Porto Alegre;RS;90570-080;Alto da Bronze;(51)3086-3003;Moinhos de Vento;CENTRO;http://www.altodabronze.net/;ESPAÇO CULTURAL;;-30,025108340721;-51,203643534105;Rua Padre Chagas, 147 - Moinhos de Vento, Porto Alegre - RS, 90570-080, República Federativa do Brasil
Rua Padre Chagas, 200;;Porto Alegre;RS;90570-080;Sepe Tiaraju Silveira Souza;(51)3346-8858;Moinhos de Vento;CENTRO;;ESPAÇO CULTURAL;;-30,025696570378;-51,204318326417;Rua Padre Chagas, 200 Porto Alegre, RS 90570-080
Rua Padre Chagas, 65;;Porto Alegre;RS;90570-080;Espaço Rotta Ely;(51)3737-1100;Moinhos de Vento;CENTRO;;ESPAÇO CULTURAL;;-30,025687408375;-51,204377138286;Rua Padre Chagas, 65 Porto Alegre, RS 90570-080
Rua Padre Chagas, 66;;Porto Alegre;RS;90570-080;Mosaico;(51)3222-3761;Moinhos de Vento;CENTRO;;ESPAÇO CULTURAL;;-30,033286526994;-51,218765922017;Rua Padre Chagas, 66 Porto Alegre, RS 90570-080
Rua Paulo Gama, 110; Térreo Prédio 12107;Porto Alegre;RS;90040-060;Biblioteca Central UFRGS (órgão coordenador do Sistema de Bibliotecas da UFRGS);(51)3316-3234;Farroupilha;CENTRO;http://www.biblioteca.ufrgs.br/;ESPAÇO DE FORMAÇÃO CULTURAL;livro, leitura;-30,031482094665;-51,229231691621;Avenida Paulo Gama, 110 - Farroupilha, Porto Alegre - RS, 90040-060, República Federativa do Brasil
Rua Paulo Setúbal, 117;;Porto Alegre;RS;91340-100;Centro Cultural Zé Rodrigues;(51)3337-0933;Passo Dareia;NOROESTE;http://www.teatrozerodrigues.com.br/;ESPAÇO CULTURAL;;-30,052666716239;-51,210476441274;Rua Paulo Setúbal, 117 - Passo da Areia, Porto Alegre - RS, 91340-100, República Federativa do Brasil
Rua Plácido de Castro, 154;;Porto Alegre;RS;90650-070;Museu Açoriano – Sul Rio-Grandense;(51)3217-3487;Santo Antonio;PARTENON;;ESPAÇO CULTURAL;;-30,030323435888;-51,222636860054;Rua Plácido de Castro, 154 - Santo Antônio, Porto Alegre - RS, 90650-070, República Federativa do Brasil
Rua Professor Annes Dias, 295;;Porto Alegre;RS;90020-090;Anfiteatro Hugo Gerdau;(51)3214-8504;Centro Historico;CENTRO;http://www.santacasa.org.br/eventos;ESPAÇO CULTURAL;;-30,035415094284;-51,208402351621;Rua Professor Annes Dias, 295 - Centro, Porto Alegre - RS, 90020-090, República Federativa do Brasil
Rua Quintino Bocaiúva, 1115;;Porto Alegre;RS;90440-050;Bolsa de Arte de Porto Alegre;(51)3332-6799;Moinhos de Vento;CENTRO;http://www.bolsadearte.com.br/;ESPAÇO CULTURAL;;-30,000341950967;-51,109326842834;Rua Quintino Bocaiúva, 1115 - Moinhos de Vento, Porto Alegre - RS, 90440-050, República Federativa do Brasil
Rua Ramiro Barcellos, 1853;;Porto Alegre;RS;90035-002;Clube de Cultura ;(51)3331-6920;Bom Fim;CENTRO;http://clubedecultura.blogspot.com/;ESPAÇO CULTURAL;;-30,026731347128;-51,209213451332;Rua Ramiro Barcelos, 1853 - Bomfim, Porto Alegre - RS, 90035-002, República Federativa do Brasil
Rua Ramiro Barcelos, 2400; 3º andar Prédio 21110;Porto Alegre;RS;90035-007;Biblioteca UFRGS Medicina/HCPA;(51)3308-5622;Santana;CENTRO;http://www.famed.ufrgs.br/;ESPAÇO DE FORMAÇÃO CULTURAL;livro, leitura;-30,041562279882;-51,208040451729;Rua Ramiro Barcelos, 2400 - Santana, Porto Alegre - RS, República Federativa do Brasil
Rua Ramiro Barcelos, 2492; Prédio 21108;Porto Alegre;RS;90035-007;Biblioteca UFRGS Odontologia;(51)3308-5186;Santana;CENTRO;http://www.ufrgs.br/odonto/biblioteca/;ESPAÇO DE FORMAÇÃO CULTURAL;livro, leitura;-30,04258797523;-51,207927681135;Rua Ramiro Barcelos, 2492 - Santana, Porto Alegre - RS, República Federativa do Brasil
Rua Ramiro Barcelos, 2574; Prédio 21201;Porto Alegre;RS;90035-007;Biblioteca UFRGS Centro de Processamento de Dados (CPD);(51)33085223;Santana;CENTRO;http://www.cpd.ufrgs.br/servicos/servicos-de-atendimento/biblioteca-cpd/?searchterm=biblioteca;ESPAÇO DE FORMAÇÃO CULTURAL;livro, leitura;-30,042286933891;-51,207983394896;Rua Ramiro Barcelos, 2574 - Santana, Porto Alegre - RS, República Federativa do Brasil
Rua Ramiro Barcelos, 2600; Prédio 21107 ;Porto Alegre;RS;90035-007;Biblioteca UFRGS Psicologia;(51)3308-5236;Santana;CENTRO;;ESPAÇO DE FORMAÇÃO CULTURAL;livro, leitura;-30,042585773564;-51,207925842545;Rua Ramiro Barcelos, 2600 - Santana, Porto Alegre - RS, República Federativa do Brasil
Rua Ramiro Barcelos, 2600; sala 423 Prédio 21107;Porto Alegre;RS;90035-006;Biblioteca UFRGS CENTRO DE DOCUMENTAÇÃO E PESQUISA DE SAÚDE E TRABALHO (CEDOP);(51)3308-5463;Santana;CENTRO;http://www6.ufrgs.br/ppgpsi/;ESPAÇO DE FORMAÇÃO CULTURAL;arquivo;-30,043544620697;-51,20752667439;Rua Ramiro Barcelos, 2600 - Santana, Porto Alegre - RS, República Federativa do Brasil
Rua Ramiro Barcelos, 2705; Prédio 22201 4º Andar;Porto Alegre;RS;90035-006;Biblioteca UFRGS Biblioteconomia e Comunicação;(51)3308-5068;Santana;CENTRO;http://www.ufrgs.br/fabico/biblioteca.htm;ESPAÇO DE FORMAÇÃO CULTURAL;livro, leitura;-30,040691465921;-51,208204250993;Rua Ramiro Barcelos, 2705 - Santana, Porto Alegre - RS, República Federativa do Brasil
Rua Ramiro Barcelos, 2777; Prédio 11202 sala 104;Porto Alegre;RS;90035-007;Biblioteca IFRS UFRGS;(51)3308-5260;Santana;CENTRO;http://www.etcom.ufrgs.br/?page_id=4238;ESPAÇO DE FORMAÇÃO CULTURAL;livro, leitura;-30,027773426859;-51,208802510495;Rua Ramiro Barcelos - Santana, Porto Alegre - RS, 90035-007, República Federativa do Brasil
Rua Ramiro Barcelos, 910;;Porto Alegre;RS;90035-005;Acervo Cultural do Hospital Moinhos de Vento;(51)3314-3434;Independencia;CENTRO;http://www.hospitalmoinhos.org.br/;ESPAÇO CULTURAL;;-30,026731369255;-51,20921433488;Rua Ramiro Barcelos, 910 - Independência, Porto Alegre - RS, 90035-005, República Federativa do Brasil
Rua Ramiro Barcelos, 910; 1º Andar;Porto Alegre;RS;90035-005;Biblioteca do Hospital Moinhos de Vento;(51)3314-3310;Independencia;CENTRO;http://www.hospitalmoinhos.org.br/iep/biblioteca.aspx;ESPAÇO DE FORMAÇÃO CULTURAL;livro, leitura, ;-30,035239707426;-51,1435075703;Rua Ramiro Barcelos, 910 Porto Alegre, RS 90035-005
Rua Ramiro Barcelos, 996;;Porto Alegre;RS;90035-005;Piapiano Academia de Música e Arte;(51)3321-2494;Independencia;CENTRO;http://www.piapiano.com.br/;ESPAÇO DE FORMAÇÃO CULTURAL;;-30,037121065288;-51,221470004203;Rua Ramiro Barcelos, 996 - Independência, Porto Alegre - RS, 90035-005, República Federativa do Brasil
Rua República do Peru, 398;;Porto Alegre;RS;91210-190;Leopoldo Boeck ;(51)3334-4120;Jardim Sabara;LESTE;;ESPAÇO DE FORMAÇÃO CULTURAL;livro, leitura;-30,031752430242;-51,231267602546;Itu Sabara, Porto Alegre - RS, 91210-190, República Federativa do Brasil
Rua Riachuelo, 1031;;Porto Alegre;RS;90010-272;Arquivo Público Estadual;(51)3288-9100;Centro Historico;CENTRO;http://www.apers.rs.gov.br/;ESPAÇO DE FORMAÇÃO CULTURAL;arquivo;-30,031482137925;-51,229233244774;Rua Riachuelo, 1031 - Centro, Porto Alegre - RS, 90010-272, República Federativa do Brasil
Rua Riachuelo, 1257; 3º andar;Porto Alegre;RS;90010-273;Haydée Leão de Madureira Instituto Cultural ;(51)3225-2255;Centro Historico;CENTRO;http://www.culturanocultural.com.br/Biblioteca/Default.aspx;ESPAÇO DE FORMAÇÃO CULTURAL;livro, leitura, audiovisual, ;-30,030671608523;-51,234146252679;Rua Riachuelo, 1257 - Centro, Porto Alegre - RS, 90010-273, República Federativa do Brasil
Rua Riachuelo, 1257;;Porto Alegre;RS;90010-273;Auditório Érico Veríssimo Teatro do Instituto Cultural;(51)3025-0610;Centro Historico;CENTRO;http://www.culturanocultural.com.br/NucleoDeCultura/CulturalTheater.aspx;ESPAÇO CULTURAL;;-30,031479401904;-51,229235046678;Rua Riachuelo, 1257 Porto Alegre, RS 90010-273
Rua Riachuelo, 1257;;Porto Alegre;RS;90010-273;Cultural Gallery of Arts Dante Sfoggia (Instituto Cultural);(51)4009-2307;Centro Historico;CENTRO;http://www.culturanocultural.com.br/NucleoDeCultura/CulturalArts.aspx;ESPAÇO CULTURAL;;-30,058788340389;-51,184231302002;Rua Riachuelo, 1257 Porto Alegre, RS 90010-273
Rua Salvador França, 1427;;Porto Alegre;RS;90690-000;Museu de Ciências Naturais da Fundação Zoobotânica do RS ;(51)3320-2000;Jardim Botanico;CENTRO; http://www.fzb.rs.gov.br ;ESPAÇO CULTURAL;;-30,036499170356;-51,20493618202;Rua Doutor Salvador França, 1427 - Partenon, Porto Alegre - RS, 90690-000, República Federativa do Brasil
Rua São Manoel, 248;;Porto Alegre;RS;90620-110;Casa Elétrica Espaço de Cultura;(51)3023-5463;Rio Branco;CENTRO;;ESPAÇO DE FORMAÇÃO CULTURAL;;-30,038946199092;-51,204999634901;Rua São Manoel, 248 - Rio Branco, Porto Alegre - RS, 90620-110, República Federativa do Brasil
Rua São Manoel, 285;;Porto Alegre;RS;90620-110;Arte&Fato;(51)3333-9044;Rio Branco;CENTRO;http://artefatogaleria.blogspot.com/;ESPAÇO CULTURAL;;-30,032987865859;-51,221045419711;Rua São Manoel, 285 - Rio Branco, Porto Alegre - RS, 90620-110, República Federativa do Brasil
Rua São Manoel, 570;;Porto Alegre;RS;90620-110;Extrato Galeria de Arte;(51)3388-6455;Santa Cecilia;CENTRO;;ESPAÇO CULTURAL;;-30,042772157956;-51,205169081286;Rua São Manoel, 570 - Santa Cecília, Porto Alegre - RS, 90620-110, República Federativa do Brasil
Rua São Manoel, 963; Sala 101 Térreo;Porto Alegre;RS;90620-110;Biblioteca UFRGS Enfermagem;(51)3308-5070;Santa Cecilia;CENTRO;http://paginas.ufrgs.br/bibenf;ESPAÇO DE FORMAÇÃO CULTURAL;livro, leitura;-30,114954422598;-51,100966705538;Rua São Manoel, 963 - Santa Cecília, Porto Alegre - RS, 90620-110, República Federativa do Brasil
Rua Sarmento Leite, 320; Prédio 12103;Porto Alegre;RS;90050-170;Biblioteca UFRGS Arquitetura;(51)3308-3989;Farroupilha;CENTRO;http://www.ufrgs.br/arquitetura/;ESPAÇO DE FORMAÇÃO CULTURAL;livro, leitura;-30,033151742751;-51,221128562903;Rua Sarmento Leite, 320 - Farroupilha, Porto Alegre - RS, 90050-170, República Federativa do Brasil
Rua Sarmento Leite, 425;;Porto Alegre;RS;90050-170;Museu de Mineralogia e Petrologia Luiz Englert;(51)3308-4087;Farroupilha;CENTRO;http://www.museumin.ufrgs.br/porsite.htm;ESPAÇO CULTURAL;;-30,029194741378;-51,223305196725;Rua Sarmento Leite, 425 - Farroupilha, Porto Alegre - RS, 90050-170, República Federativa do Brasil
Rua Sarmento Leite, 500; sala 102 Prédio 12101;Porto Alegre;RS;90050-170;Biblioteca UFRGS CIÊNCIAS BÁSICAS DA SAÚDE (ICBS);(51)3308-3917;Farroupilha;CENTRO;http://paginas.ufrgs.br/bibicbs;ESPAÇO DE FORMAÇÃO CULTURAL;livro, leitura, arquivo;-30,031522119372;-51,20156289158;Rua Sarmento Leite, 500 - Farroupilha, Porto Alegre - RS, 90050-170, República Federativa do Brasil
Rua Schiller, 14;;Porto Alegre;RS;90430-150;Estação Musical;(51)3388-6605;Rio Branco;CENTRO;;ESPAÇO DE FORMAÇÃO CULTURAL;música;-30,029192598065;-51,223303504893;Rua Schiller, 14 - Rio Branco, Porto Alegre - RS, 90430-150, República Federativa do Brasil
Rua Senhor dos Passos, 248; 1º andar;Porto Alegre;RS;90020-180;Pinacoteca Barão de Santo Ângelo (UFRGS);(51)3316-4302;Centro Historico;CENTRO;http://www6.ufrgs.br/acervoartes/modules/mastop_publish/ E http://www.ufrgs.br/galeria/;ESPAÇO CULTURAL;;-30,029085389842;-51,23000017177;Rua Senhor dos Passos, 248 - Centro, Porto Alegre - RS, 90020-180, República Federativa do Brasil
Rua Senhor dos Passos, 248;;Porto Alegre;RS;90020-180;Instituto de Artes da UFRGS;;Centro Historico;CENTRO;http://www.artes.ufrgs.br/;ESPAÇO DE FORMAÇÃO CULTURAL;música, artes visuais, artes cênicas, fotografia;-30,029190681466;-51,223305105177;Rua Senhor dos Passos, 248 Porto Alegre, RS 90020-180
Rua Senhor dos Passos, 248; Prédio 13201;Porto Alegre;RS;90020-180;Biblioteca UFRGS Instituto de Artes;(51)3308-4308;Centro Historico;CENTRO;http://www.ufrgs.br/bibart/;ESPAÇO DE FORMAÇÃO CULTURAL;livro, leitura;-30,029086194161;-51,23000035316;Rua Senhor dos Passos, 248 Porto Alegre, RS 90020-180
Rua Sete de Setembro, 1020; 2º andar;Porto Alegre;RS;90010-191;Arquivo Histórico do RS;(51)3225-7880;Centro Historico;CENTRO;http://www.cultura.rs.gov.br/principal.php?inc=arq_hist;ESPAÇO DE FORMAÇÃO CULTURAL;arquivo;-29,995870755143;-51,202060651456;Rua Sete de Setembro, 1020 - Centro, Porto Alegre - RS, 90010-191, República Federativa do Brasil
Rua Sete de Setembro, 1028;;Porto Alegre;RS;90010-191;Acervo da Moeda Santander Cultural;(51)3287-5500;Centro Historico;CENTRO;www.santandercultural.com.br;ESPAÇO CULTURAL;;-30,0290874518;-51,229999272659;Rua Sete de Setembro, 1028 - Centro, Porto Alegre - RS, 90010-191, República Federativa do Brasil
Rua Sete de Setembro, 1028;;Porto Alegre;RS;90010-191;Salas Multiuso do Santander Cultural;;Centro Historico;CENTRO;http://www.santandercultural.com.br/;ESPAÇO CULTURAL;;-30,02908818733;-51,230001240542;Rua Sete de Setembro, 1028 Porto Alegre, RS 90010-191
Rua Sete de Setembro, 1028;;Porto Alegre;RS;90010-191;Cine Santander;( 5)1328-5721;Centro Historico;CENTRO;http://www.santandercultural.com.br/;ESPAÇO DE FORMAÇÃO CULTURAL;;-30,038936164792;-51,20417505314;Rua Sete de Setembro, 1028 Porto Alegre, RS 90010-191
Rua Sete de Setembro, 604;;Porto Alegre;RS;90010-190;Teatro do GBOEX;(51)3215-8000;Centro Historico;CENTRO;http://www.gboex.com.br/;ESPAÇO CULTURAL;;-30,040741573093;-51,208075572534;Rua Sete de Setembro, 604 - Centro, Porto Alegre - RS, 90010-190, República Federativa do Brasil
Rua Silva Só, 141;;Porto Alegre;RS;90610-270;Teatro Studio;( 5)1330-9000;Santa Cecilia;CENTRO;;ESPAÇO CULTURAL;;-30,067071083761;-51,167806849897;Rua Silva Só, 141 - Santa Cecília, Porto Alegre - RS, 90610-270, República Federativa do Brasil
Rua Vicente da Fontoura, 2600;;Porto Alegre;RS;90640-000;Bublitz Galeria de Arte;(51)3029-0109;Rio Branco;CENTRO;;ESPAÇO CULTURAL;;-30,019933431141;-51,203568760912;Rua Vicente da Fontoura, 2600 - Rio Branco, Porto Alegre - RS, 90640-000, República Federativa do Brasil
Rua Vidal de Negreiros, 583; Morro da Cruz;Porto Alegre;RS;91520-480;Biblioteca Comunitária Ilê Ará;(51)3318-3119;Sao Jose;PARTENON;;ESPAÇO DE FORMAÇÃO CULTURAL;livro, leitura,  teatro, fotografia, dança;-30,037372869489;-51,23007675087;Rua Vidal de Negreiros, 583 - São José, Porto Alegre - RS, 91520-480, República Federativa do Brasil
Rua Visconde do Rio Branco, 691;;Porto Alegre;RS;90220-230;Galeria de Arte Paulo Capelari;(51)3312-8558;Floresta;CENTRO;http://www.paulocapelari.com.br/;ESPAÇO CULTURAL;;-30,036778830793;-51,232018557015;Rua Visconde do Rio Branco, 691 - Floresta, Porto Alegre - RS, 90220-230, República Federativa do Brasil
Rua Washington Luiz, 1050;;Porto Alegre;RS;90010-460;Memorial Acemista ACM;(51)3226-8288;Centro Historico;CENTRO;www.acm-rs.com.br;ESPAÇO CULTURAL;;-30,036735020134;-51,233494898936;Rua Washington Luiz, 1050 - Centro, Porto Alegre - RS, 90010-460, República Federativa do Brasil
Rua Washington Luiz, 675;;Porto Alegre;RS;90010-460;CIENTEC Fundação de Ciência e Tecnologia;(51)3287-2060;Centro Historico;CENTRO;http://www.cientec.rs.gov.br/;ESPAÇO DE FORMAÇÃO CULTURAL;arquivo;-30,036778183288;-51,232017467386;Rua Washington Luiz, 675 - Cientec, Centro, Porto Alegre - RS, 90010-460, República Federativa do Brasil
Rua Washington Luiz, 855;;Porto Alegre;RS;90010-460;Auditório da DEMEC  ;(51)3308-3929;Centro Historico;CENTRO;http://www.mecanica.ufrgs.br/;ESPAÇO CULTURAL;;-30,047647019302;-51,17840963347;Rua Washington Luiz, 855 - Centro, Porto Alegre - RS, 90010-460, República Federativa do Brasil
Rua Washington Luiz, 855; Prédio 13701;Porto Alegre;RS;90010-460;Biblioteca UFRGS Administração;(51)3308-3840;Centro Historico;CENTRO;http://www.ea.ufrgs.br/;ESPAÇO DE FORMAÇÃO CULTURAL;livro, leitura;-30,110327349483;-51,254455714425;Rua Washington Luiz, 855 Porto Alegre, RS 90010-460
Trav.  Eng.Acelino de Carvalho, 56;;Porto Alegre;RS;90010-200;Arco-íris Vitória;(51)3212-3474;Centro Historico;CENTRO;http://www.arcoiriscinemas.com.br/;ESPAÇO DE FORMAÇÃO CULTURAL;;-30,038482507227;-51,226101273798;Porto Alegre - RS, 90010-200, República Federativa do Brasil
Travessa do Carmo, 88;;Porto Alegre;RS;90050-210;Galpão da EPATUR;(51)3212-4629;Cidade Baixa;CENTRO;;ESPAÇO CULTURAL;;-30,042099884173;-51,222634983584;Travessa do Carmo, 88 - Cidade Baixa, Porto Alegre - RS, 90050-210, República Federativa do Brasil
Travessa dos Venezianos, 19;;Porto Alegre;RS;90050-370;Chico Lisboa Associação Riograndesnse de Artes Plásticas Francisco Lisboa;(51)3224-6678;Cidade Baixa;CENTRO;www.chicolisboa.com.br;ESPAÇO DE FORMAÇÃO CULTURAL;Artes Plásticas;-30,026950414466;-51,230083619411;Travessa Venezianos, 19 - Cidade Baixa, Porto Alegre - RS, 90050-370, República Federativa do Brasil
Travessa Leonardo Truda, 40; 6º andar;Porto Alegre;RS;90010-050;Biblioteca Pública do Sesi;0800 51 8555;Centro Historico;CENTRO;http://www.sesirs.org.br/sesieducacao/atuacao_sesi_educacao.asp?idArea=1399&idSubMenu=1410;ESPAÇO DE FORMAÇÃO CULTURAL;livto, leitura;-30,066045973798;-51,227331982365;Travessa Francisco de Leonardo Truda, 40 - Centro, Porto Alegre - RS, 90010-050, República Federativa do Brasil
Travessa Paraíso, 71;;Porto Alegre;RS;90850-190;Solar da Travessa Paraíso ;(51)3232-1652;Santa Tereza;CRUZEIRO;http://www.poaemcena.com.br;ESPAÇO CULTURAL;;-30,039872108472;-51,215439152883;Travessa Paraíso, 71 - Santa Tereza, Porto Alegre - RS, 90850-190, República Federativa do Brasil
Travessa Paz, 44;;Porto Alegre;RS;90040-110;La Photo Galeria e Espaço Cultural;(51)9755-8191;Farroupilha;CENTRO;http://www.galerialaphoto.blogspot.com/;ESPAÇO CULTURAL;fotografia;-30,022674881931;-51,161350778209;Travessa Paz, 44 - Farroupilha, Porto Alegre - RS, 90040-110, República Federativa do Brasil
